{"type":"FeatureCollection","name":"bma_zone_groups","crs":{"type":"name","properties":{"name":"urn:ogc:def:crs:OGC:1.3:CRS84"}},"features":[{"type":"Feature","properties":{"z_name":"กรุงเทพกลาง","z_name_en":"Central Bangkok","z_code":1,"num_male_src":344570,"num_female_src":369470,"num_male_calc":346463,"num_female_calc":372300,"pop_total_calc":718763,"num_house":326701,"num_commu":222,"n_districts":9,"districts":"ดินแดง, ดุสิต, ป้อมปราบศัตรูพ่าย, พญาไท, พระนคร, ราชเทวี, วังทองหลาง, สัมพันธวงศ์, ห้วยขวาง","area_km2_src":78.921,"area_km2":78.761,"data_flag":"ok"},"geometry":{"type":"Polygon","coordinates":[[[100.58472,13.8028],[100.5832,13.80291],[100.5815,13.80265],[100.58068,13.80197],[100.57829,13.80157],[100.57686,13.80119],[100.57613,13.80141],[100.57542,13.80137],[100.57434,13.80089],[100.57382,13.8004],[100.57281,13.80014],[100.57201,13.79968],[100.57157,13.79971],[100.56973,13.79941],[100.56748,13.79928],[100.56717,13.79852],[100.56696,13.79638],[100.56697,13.79502],[100.56594,13.79461],[100.56426,13.79481],[100.55988,13.79515],[100.5581,13.79545],[100.55754,13.79533],[100.55594,13.79559],[100.55418,13.79569],[100.55365,13.79592],[100.5509,13.79613],[100.5497,13.79645],[100.54809,13.79668],[100.54479,13.79697],[100.54209,13.7973],[100.53889,13.79774],[100.5372,13.79788],[100.53323,13.79984],[100.53233,13.79826],[100.53093,13.7984],[100.52898,13.79889],[100.52803,13.79885],[100.52721,13.79865],[100.52673,13.79872],[100.52579,13.79923],[100.525,13.7992],[100.52395,13.7996],[100.52233,13.79999],[100.52116,13.79992],[100.52003,13.8],[100.51909,13.8002],[100.51839,13.80017],[100.51648,13.80034],[100.5162,13.79923],[100.51583,13.79823],[100.51526,13.79714],[100.5141,13.79557],[100.51036,13.79121],[100.50795,13.78884],[100.50542,13.78588],[100.50382,13.78374],[100.50256,13.78118],[100.50007,13.77531],[100.49836,13.77139],[100.49694,13.76824],[100.49491,13.76567],[100.49328,13.76403],[100.49089,13.76183],[100.48986,13.76042],[100.48929,13.75946],[100.48862,13.75801],[100.48803,13.75618],[100.48765,13.75383],[100.48765,13.75176],[100.48788,13.75002],[100.48849,13.74788],[100.48892,13.74685],[100.48968,13.74544],[100.4903,13.74451],[100.49246,13.74177],[100.49395,13.74067],[100.49813,13.7391],[100.50252,13.73813],[100.50507,13.73752],[100.50636,13.73711],[100.50796,13.73633],[100.5089,13.73569],[100.5102,13.7345],[100.51094,13.73318],[100.51185,13.73122],[100.51232,13.72944],[100.5135,13.7298],[100.51482,13.73115],[100.51552,13.73247],[100.51587,13.73432],[100.51593,13.73561],[100.51576,13.73707],[100.5157,13.73891],[100.51579,13.74178],[100.51631,13.7456],[100.51695,13.74906],[100.51736,13.75218],[100.51736,13.75326],[100.52017,13.75244],[100.52196,13.75127],[100.52387,13.75021],[100.52513,13.74935],[100.5255,13.74928],[100.52752,13.74967],[100.52994,13.74931],[100.53106,13.74931],[100.53341,13.74915],[100.53515,13.74934],[100.53606,13.74964],[100.53754,13.74973],[100.53931,13.74962],[100.54201,13.74931],[100.54348,13.74888],[100.54756,13.74845],[100.54966,13.74848],[100.55126,13.74837],[100.55227,13.74843],[100.55342,13.74835],[100.55691,13.74838],[100.55873,13.74854],[100.56084,13.74833],[100.56278,13.74796],[100.56463,13.74773],[100.56488,13.74778],[100.5675,13.74711],[100.57078,13.74651],[100.57206,13.74638],[100.57478,13.74569],[100.57615,13.74551],[100.57759,13.74516],[100.57916,13.74493],[100.58077,13.74456],[100.58439,13.7436],[100.58591,13.74326],[100.58762,13.74298],[100.58924,13.74261],[100.5932,13.74189],[100.59717,13.74121],[100.59816,13.7412],[100.59963,13.74517],[100.6002,13.74701],[100.60049,13.74747],[100.60233,13.7491],[100.60429,13.75105],[100.60409,13.75124],[100.60525,13.75235],[100.60841,13.75512],[100.60997,13.75671],[100.60989,13.75702],[100.61068,13.75726],[100.61155,13.75819],[100.61219,13.75865],[100.61356,13.76004],[100.61392,13.76055],[100.61528,13.76127],[100.61665,13.76165],[100.61851,13.76175],[100.62043,13.76215],[100.62202,13.76235],[100.62291,13.76236],[100.62708,13.76291],[100.62923,13.76301],[100.63047,13.76324],[100.6301,13.76537],[100.62992,13.76678],[100.62885,13.77207],[100.62894,13.77251],[100.62825,13.77565],[100.62927,13.77508],[100.63034,13.7805],[100.63065,13.78397],[100.63059,13.78435],[100.62955,13.78702],[100.62906,13.7887],[100.62594,13.78809],[100.62547,13.79023],[100.62503,13.79308],[100.62485,13.79383],[100.62362,13.8002],[100.62181,13.79982],[100.61922,13.79949],[100.6161,13.79931],[100.615,13.79973],[100.61369,13.79661],[100.6129,13.79488],[100.61029,13.79494],[100.60725,13.79532],[100.60628,13.79531],[100.60565,13.79515],[100.6021,13.79564],[100.59965,13.79613],[100.59724,13.7983],[100.59718,13.79901],[100.59594,13.79934],[100.5964,13.80123],[100.59179,13.8026],[100.59044,13.80283],[100.58852,13.80282],[100.58839,13.8031],[100.58472,13.8028]]]}},{"type":"Feature","properties":{"z_name":"กรุงเทพใต้","z_name_en":"Southern Bangkok","z_code":2,"num_male_src":44623,"num_female_src":58629,"num_male_calc":408662,"num_female_calc":455806,"pop_total_calc":864468,"num_house":519997,"num_commu":292,"n_districts":10,"districts":"คลองเตย, บางคอแหลม, บางนา, บางรัก, ปทุมวัน, พระโขนง, ยานนาวา, วัฒนา, สวนหลวง, สาทร","area_km2_src":185.316,"area_km2":122.846,"data_flag":"population_src_anomaly"},"geometry":{"type":"Polygon","coordinates":[[[100.51736,13.75326],[100.51736,13.75218],[100.51695,13.74906],[100.51631,13.7456],[100.51579,13.74178],[100.5157,13.73891],[100.51593,13.73561],[100.51552,13.73247],[100.51482,13.73115],[100.5135,13.7298],[100.51232,13.72944],[100.51273,13.72666],[100.51284,13.7243],[100.51245,13.72031],[100.51184,13.71826],[100.51019,13.71517],[100.5076,13.71153],[100.50413,13.70824],[100.50121,13.70639],[100.49814,13.70483],[100.49494,13.70304],[100.49318,13.70176],[100.49099,13.69923],[100.49028,13.69777],[100.48993,13.6963],[100.49044,13.6934],[100.49269,13.69041],[100.49406,13.68937],[100.49691,13.68779],[100.49927,13.687],[100.50398,13.68598],[100.51068,13.68514],[100.51316,13.68447],[100.51601,13.68323],[100.51865,13.68171],[100.52081,13.68022],[100.52498,13.67639],[100.52868,13.67328],[100.53108,13.67176],[100.53405,13.67034],[100.53672,13.66967],[100.53869,13.66943],[100.54083,13.66944],[100.54278,13.67009],[100.54642,13.67192],[100.54836,13.67369],[100.54962,13.67531],[100.55083,13.67733],[100.55182,13.68026],[100.55234,13.68456],[100.55252,13.68807],[100.55238,13.69087],[100.55151,13.69632],[100.55147,13.69964],[100.55195,13.70243],[100.55296,13.7044],[100.5541,13.70527],[100.5572,13.70651],[100.55942,13.70663],[100.56126,13.7064],[100.56429,13.70576],[100.57063,13.70362],[100.5774,13.70069],[100.58115,13.69891],[100.58346,13.697],[100.58695,13.6932],[100.58817,13.69124],[100.58907,13.68813],[100.58922,13.68672],[100.58908,13.68425],[100.58869,13.68248],[100.58743,13.67985],[100.58659,13.67848],[100.58411,13.67528],[100.58282,13.67388],[100.58046,13.67089],[100.57903,13.66878],[100.59193,13.66375],[100.59399,13.66252],[100.5962,13.66079],[100.59901,13.65983],[100.60061,13.66094],[100.60144,13.6606],[100.60057,13.65841],[100.60149,13.65821],[100.60181,13.65892],[100.60307,13.6589],[100.60483,13.65827],[100.60536,13.65927],[100.60777,13.65856],[100.60714,13.65666],[100.61649,13.65392],[100.6176,13.65699],[100.61908,13.6564],[100.61863,13.655],[100.62252,13.65388],[100.63079,13.65122],[100.63007,13.6492],[100.6344,13.64742],[100.63964,13.65389],[100.64162,13.65377],[100.64885,13.6527],[100.64905,13.65193],[100.65024,13.65172],[100.65038,13.65425],[100.64991,13.65763],[100.65001,13.65927],[100.65067,13.65931],[100.65082,13.66042],[100.65225,13.66381],[100.65324,13.66744],[100.65379,13.66898],[100.6531,13.66922],[100.64769,13.66907],[100.64569,13.66936],[100.6437,13.67142],[100.64083,13.6759],[100.6402,13.67786],[100.63951,13.68092],[100.63944,13.68193],[100.63874,13.6851],[100.63816,13.68912],[100.63792,13.68994],[100.6371,13.69521],[100.63404,13.70074],[100.64185,13.70261],[100.64448,13.70247],[100.64681,13.70271],[100.64783,13.70309],[100.6499,13.70335],[100.65098,13.70297],[100.6502,13.70494],[100.65007,13.70594],[100.64918,13.70724],[100.64974,13.7095],[100.64979,13.71106],[100.65028,13.71279],[100.65109,13.71384],[100.65072,13.71462],[100.65118,13.71585],[100.65153,13.718],[100.65123,13.71817],[100.64791,13.71735],[100.64898,13.72197],[100.64931,13.7238],[100.64974,13.7288],[100.65184,13.7295],[100.65188,13.73092],[100.65391,13.73379],[100.656,13.73466],[100.65663,13.73664],[100.65808,13.73657],[100.65928,13.73842],[100.65876,13.73842],[100.64838,13.74194],[100.64748,13.74263],[100.64812,13.74289],[100.64857,13.7441],[100.64512,13.74661],[100.6433,13.74669],[100.64071,13.74796],[100.63882,13.74937],[100.63566,13.7501],[100.6312,13.74876],[100.62683,13.74768],[100.62515,13.74739],[100.62223,13.74655],[100.61702,13.74534],[100.61405,13.74446],[100.6114,13.74384],[100.61048,13.7438],[100.60779,13.74498],[100.60453,13.7466],[100.60124,13.74808],[100.6002,13.74701],[100.59963,13.74517],[100.59816,13.7412],[100.59717,13.74121],[100.58924,13.74261],[100.58439,13.7436],[100.58077,13.74456],[100.57478,13.74569],[100.57206,13.74638],[100.5675,13.74711],[100.56488,13.74778],[100.56278,13.74796],[100.55873,13.74854],[100.55691,13.74838],[100.55126,13.74837],[100.54756,13.74845],[100.54348,13.74888],[100.54201,13.74931],[100.53754,13.74973],[100.53606,13.74964],[100.53341,13.74915],[100.52994,13.74931],[100.52752,13.74967],[100.5255,13.74928],[100.52196,13.75127],[100.52017,13.75244],[100.51736,13.75326]]]}},{"type":"Feature","properties":{"z_name":"กรุงเทพเหนือ","z_name_en":"Northern Bangkok","z_code":3,"num_male_src":513128,"num_female_src":561642,"num_male_calc":509732,"num_female_calc":560427,"pop_total_calc":1070159,"num_house":490542,"num_commu":442,"n_districts":7,"districts":"จตุจักร, ดอนเมือง, บางซื่อ, บางเขน, ลาดพร้าว, สายไหม, หลักสี่","area_km2_src":212.992,"area_km2":210.652,"data_flag":"ok"},"geometry":{"type":"Polygon","coordinates":[[[100.62546,13.94786],[100.62452,13.9493],[100.61992,13.95154],[100.61434,13.95436],[100.60431,13.95387],[100.60528,13.94791],[100.60571,13.94462],[100.60564,13.94415],[100.60225,13.94554],[100.59162,13.95035],[100.58961,13.95096],[100.58311,13.95249],[100.57384,13.95457],[100.57014,13.95268],[100.56868,13.95177],[100.56782,13.95158],[100.56311,13.93176],[100.55814,13.91073],[100.5568,13.90485],[100.55501,13.89746],[100.55246,13.88645],[100.55082,13.87959],[100.54806,13.86779],[100.54665,13.86195],[100.54441,13.85237],[100.54379,13.84988],[100.5434,13.84952],[100.53835,13.84736],[100.53736,13.84663],[100.53611,13.84617],[100.53403,13.84439],[100.53189,13.84227],[100.52667,13.8377],[100.52286,13.83454],[100.51882,13.83074],[100.51595,13.82862],[100.51543,13.82711],[100.51318,13.82616],[100.51312,13.82488],[100.51271,13.82478],[100.51211,13.82588],[100.51093,13.82614],[100.51079,13.82531],[100.50936,13.82556],[100.50929,13.82484],[100.51014,13.82424],[100.50976,13.82375],[100.50774,13.82286],[100.50763,13.82165],[100.5071,13.82109],[100.50633,13.81919],[100.50736,13.81642],[100.5107,13.81544],[100.51394,13.814],[100.51581,13.81268],[100.51631,13.81198],[100.51719,13.80991],[100.51744,13.80874],[100.51764,13.80496],[100.5173,13.80292],[100.51648,13.80034],[100.52003,13.8],[100.52233,13.79999],[100.525,13.7992],[100.52579,13.79923],[100.52673,13.79872],[100.52898,13.79889],[100.53093,13.7984],[100.53233,13.79826],[100.53323,13.79984],[100.5372,13.79788],[100.53889,13.79774],[100.54479,13.79697],[100.54809,13.79668],[100.5509,13.79613],[100.55365,13.79592],[100.55418,13.79569],[100.55754,13.79533],[100.56594,13.79461],[100.56697,13.79502],[100.56717,13.79852],[100.56748,13.79928],[100.57201,13.79968],[100.57382,13.8004],[100.57542,13.80137],[100.57686,13.80119],[100.58068,13.80197],[100.5815,13.80265],[100.5832,13.80291],[100.58472,13.8028],[100.58839,13.8031],[100.58852,13.80282],[100.59044,13.80283],[100.59179,13.8026],[100.5964,13.80123],[100.59594,13.79934],[100.59718,13.79901],[100.59724,13.7983],[100.59965,13.79613],[100.6021,13.79564],[100.60565,13.79515],[100.60725,13.79532],[100.61029,13.79494],[100.6129,13.79488],[100.6152,13.8002],[100.61892,13.80834],[100.62075,13.81171],[100.62507,13.81845],[100.62556,13.81974],[100.62739,13.82294],[100.62912,13.82694],[100.62992,13.82998],[100.6313,13.83375],[100.63481,13.83978],[100.63532,13.84121],[100.63718,13.84474],[100.63907,13.84607],[100.64109,13.84671],[100.64813,13.84762],[100.64789,13.84634],[100.64973,13.84633],[100.65206,13.84695],[100.65297,13.84684],[100.65686,13.84791],[100.65788,13.84772],[100.65919,13.84789],[100.65921,13.84881],[100.6612,13.84917],[100.66151,13.85001],[100.66102,13.85104],[100.66116,13.85253],[100.66291,13.85564],[100.66325,13.85598],[100.66471,13.85469],[100.66629,13.85584],[100.66898,13.85683],[100.67197,13.85724],[100.67391,13.85693],[100.67549,13.85643],[100.67623,13.85729],[100.67728,13.85791],[100.67975,13.85839],[100.68049,13.85878],[100.68124,13.85999],[100.68203,13.86052],[100.68341,13.86266],[100.68403,13.86605],[100.68576,13.86925],[100.68481,13.87213],[100.68455,13.87443],[100.68488,13.87505],[100.68622,13.87616],[100.68757,13.8781],[100.6883,13.8788],[100.68985,13.87957],[100.68993,13.88042],[100.68941,13.88158],[100.68976,13.88358],[100.69051,13.8854],[100.69209,13.88676],[100.69138,13.88756],[100.69147,13.89074],[100.69187,13.89316],[100.69199,13.89488],[100.69236,13.897],[100.69211,13.89852],[100.69058,13.90039],[100.69044,13.90126],[100.68971,13.90303],[100.6882,13.90513],[100.68705,13.90787],[100.68707,13.90909],[100.68597,13.91024],[100.68367,13.91146],[100.68366,13.91335],[100.68416,13.91404],[100.68599,13.91515],[100.68757,13.91715],[100.68718,13.91931],[100.68725,13.92151],[100.68853,13.9241],[100.68864,13.92501],[100.68922,13.92576],[100.68969,13.92904],[100.68964,13.93096],[100.68767,13.931],[100.68228,13.93082],[100.68044,13.93084],[100.67593,13.9306],[100.6725,13.93058],[100.67126,13.93045],[100.66383,13.93032],[100.66129,13.93053],[100.6581,13.93058],[100.6482,13.93093],[100.64109,13.93142],[100.64018,13.93177],[100.63956,13.93265],[100.63966,13.93764],[100.6265,13.938],[100.62546,13.94786]]]}},{"type":"Feature","properties":{"z_name":"กรุงเทพตะวันออก","z_name_en":"Eastern Bangkok","z_code":4,"num_male_src":518222,"num_female_src":581995,"num_male_calc":588098,"num_female_calc":658097,"pop_total_calc":1246195,"num_house":474962,"num_commu":477,"n_districts":9,"districts":"คลองสามวา, คันนายาว, บางกะปิ, บึงกุ่ม, ประเวศ, มีนบุรี, ลาดกระบัง, สะพานสูง, หนองจอก","area_km2_src":641.389,"area_km2":707.889,"data_flag":"ok"},"geometry":{"type":"Polygon","coordinates":[[[100.91181,13.92763],[100.91407,13.94606],[100.91411,13.94868],[100.89342,13.94668],[100.88657,13.94584],[100.86294,13.94334],[100.8538,13.94219],[100.83946,13.94063],[100.83313,13.93954],[100.82391,13.93744],[100.79559,13.93207],[100.79114,13.93114],[100.72853,13.92314],[100.71242,13.92102],[100.68729,13.91932],[100.68757,13.91715],[100.68599,13.91515],[100.68366,13.91335],[100.68367,13.91146],[100.68597,13.91024],[100.68707,13.90909],[100.68705,13.90787],[100.6882,13.90513],[100.68971,13.90303],[100.69058,13.90039],[100.69211,13.89852],[100.69236,13.897],[100.69147,13.89074],[100.69138,13.88756],[100.69209,13.88676],[100.69051,13.8854],[100.68941,13.88158],[100.68985,13.87957],[100.6883,13.8788],[100.68455,13.87443],[100.68481,13.87213],[100.68576,13.86925],[100.68403,13.86605],[100.68341,13.86266],[100.68049,13.85878],[100.67728,13.85791],[100.67549,13.85643],[100.67197,13.85724],[100.66898,13.85683],[100.66629,13.85584],[100.66471,13.85469],[100.66325,13.85598],[100.66116,13.85253],[100.6612,13.84917],[100.65921,13.84881],[100.65919,13.84789],[100.65686,13.84791],[100.65297,13.84684],[100.64789,13.84634],[100.64813,13.84762],[100.64109,13.84671],[100.63907,13.84607],[100.63718,13.84474],[100.63481,13.83978],[100.6313,13.83375],[100.62912,13.82694],[100.62739,13.82294],[100.62507,13.81845],[100.62075,13.81171],[100.61892,13.80834],[100.615,13.79973],[100.6161,13.79931],[100.61922,13.79949],[100.62362,13.8002],[100.62594,13.78809],[100.62906,13.7887],[100.63065,13.78397],[100.63034,13.7805],[100.62927,13.77508],[100.62825,13.77565],[100.63047,13.76324],[100.61665,13.76165],[100.61392,13.76055],[100.61219,13.75865],[100.60409,13.75124],[100.6013,13.74815],[100.61048,13.7438],[100.61405,13.74446],[100.62515,13.74739],[100.6312,13.74876],[100.63566,13.7501],[100.63882,13.74937],[100.64071,13.74796],[100.6433,13.74669],[100.64512,13.74661],[100.64857,13.7441],[100.64748,13.74263],[100.64838,13.74194],[100.65876,13.73842],[100.65808,13.73657],[100.65663,13.73664],[100.656,13.73466],[100.65391,13.73379],[100.65188,13.73092],[100.65184,13.7295],[100.64974,13.7288],[100.64931,13.7238],[100.64791,13.71735],[100.65153,13.718],[100.64918,13.70724],[100.65007,13.70594],[100.65098,13.70297],[100.6499,13.70335],[100.64448,13.70247],[100.64185,13.70261],[100.63404,13.70074],[100.6371,13.69521],[100.63951,13.68092],[100.64083,13.6759],[100.6437,13.67142],[100.64569,13.66936],[100.64769,13.66907],[100.6531,13.66922],[100.65379,13.66898],[100.65536,13.67221],[100.65775,13.67145],[100.65993,13.67016],[100.66098,13.67162],[100.66687,13.66819],[100.66647,13.6672],[100.67216,13.66503],[100.6723,13.66456],[100.67576,13.66343],[100.67833,13.66147],[100.68873,13.65815],[100.69351,13.6572],[100.69365,13.65746],[100.69825,13.65631],[100.69877,13.66051],[100.69977,13.66405],[100.70397,13.67152],[100.70519,13.67448],[100.70468,13.67502],[100.70547,13.67882],[100.70635,13.67864],[100.70728,13.68482],[100.70889,13.68825],[100.7098,13.69122],[100.70985,13.69519],[100.71096,13.70111],[100.71228,13.70124],[100.71192,13.70417],[100.70967,13.7184],[100.71642,13.71833],[100.73032,13.7185],[100.73071,13.71681],[100.74722,13.71685],[100.75127,13.71645],[100.75337,13.71674],[100.76069,13.71647],[100.76669,13.71669],[100.76656,13.7154],[100.77087,13.71571],[100.77116,13.71646],[100.77853,13.7162],[100.77971,13.71672],[100.78795,13.71669],[100.79219,13.71534],[100.80235,13.71168],[100.80914,13.70891],[100.82878,13.70195],[100.84069,13.69675],[100.84081,13.69703],[100.84892,13.69367],[100.85586,13.69116],[100.85933,13.68947],[100.86073,13.69698],[100.85513,13.69936],[100.85851,13.70513],[100.86057,13.70819],[100.87329,13.72891],[100.87464,13.73122],[100.88553,13.74825],[100.89166,13.7581],[100.90277,13.77777],[100.90947,13.78985],[100.91041,13.79087],[100.91572,13.79386],[100.92863,13.80151],[100.93718,13.8128],[100.93816,13.81471],[100.92589,13.82408],[100.91277,13.83432],[100.90783,13.83801],[100.90882,13.84084],[100.91183,13.84515],[100.91264,13.84676],[100.90238,13.8488],[100.90212,13.84901],[100.90454,13.8589],[100.90615,13.86041],[100.90622,13.87475],[100.90641,13.88024],[100.90683,13.88624],[100.90873,13.90374],[100.91181,13.92763]]]}},{"type":"Feature","properties":{"z_name":"กรุงธนเหนือ","z_name_en":"North Western Bangkok","z_code":5,"num_male_src":509260,"num_female_src":484556,"num_male_calc":394441,"num_female_calc":439676,"pop_total_calc":834117,"num_house":329931,"num_commu":325,"n_districts":8,"districts":"คลองสาน, จอมทอง, ตลิ่งชัน, ทวีวัฒนา, ธนบุรี, บางกอกน้อย, บางกอกใหญ่, บางพลัด","area_km2_src":150.049,"area_km2":155.391,"data_flag":"ok"},"geometry":{"type":"Polygon","coordinates":[[[100.50795,13.78884],[100.51036,13.79121],[100.5141,13.79557],[100.51526,13.79714],[100.5162,13.79923],[100.5173,13.80292],[100.51764,13.80496],[100.51744,13.80874],[100.51631,13.81198],[100.51522,13.81314],[100.50246,13.80162],[100.49998,13.80018],[100.48917,13.79628],[100.48512,13.79471],[100.47322,13.7906],[100.46649,13.78895],[100.46692,13.7905],[100.46966,13.79486],[100.46574,13.79657],[100.46142,13.7978],[100.45704,13.7984],[100.44947,13.79887],[100.44544,13.79924],[100.44104,13.79942],[100.43502,13.79994],[100.41105,13.80136],[100.39801,13.80185],[100.39371,13.80194],[100.38094,13.80246],[100.37457,13.80255],[100.35763,13.80312],[100.34472,13.8034],[100.33836,13.80369],[100.33195,13.80386],[100.3279,13.80418],[100.32914,13.79637],[100.33005,13.7923],[100.33039,13.78815],[100.32994,13.77773],[100.32957,13.77257],[100.32908,13.76847],[100.32918,13.76603],[100.33002,13.76268],[100.33052,13.76144],[100.33083,13.7588],[100.33181,13.75357],[100.33127,13.74831],[100.33181,13.74633],[100.3318,13.74412],[100.33257,13.74104],[100.33314,13.73969],[100.33274,13.73701],[100.33347,13.73521],[100.33539,13.73611],[100.33606,13.73587],[100.34019,13.73663],[100.34725,13.73701],[100.3518,13.73746],[100.35935,13.73801],[100.35267,13.75205],[100.35269,13.75217],[100.36202,13.75376],[100.36549,13.75393],[100.37321,13.75368],[100.378,13.75342],[100.38364,13.75268],[100.38961,13.75202],[100.39686,13.75107],[100.40239,13.75021],[100.40814,13.74912],[100.41682,13.74723],[100.4197,13.74565],[100.42132,13.74431],[100.42511,13.74342],[100.42552,13.74296],[100.42752,13.74239],[100.43118,13.74215],[100.43246,13.74035],[100.435,13.7401],[100.43914,13.74004],[100.44041,13.74065],[100.44316,13.74021],[100.44348,13.7405],[100.44626,13.74076],[100.44757,13.74038],[100.44917,13.74097],[100.45001,13.74054],[100.4506,13.7412],[100.45225,13.74113],[100.45435,13.74255],[100.45543,13.74201],[100.4568,13.74273],[100.45663,13.74348],[100.45766,13.7441],[100.45967,13.74372],[100.46201,13.74441],[100.46161,13.74181],[100.46165,13.73869],[100.46224,13.73477],[100.46284,13.73241],[100.46559,13.72765],[100.46779,13.72469],[100.47056,13.72304],[100.47173,13.72285],[100.47136,13.72087],[100.46946,13.71822],[100.46923,13.71597],[100.46832,13.71606],[100.46281,13.7179],[100.46283,13.71678],[100.46354,13.71386],[100.45779,13.71233],[100.45529,13.71182],[100.45591,13.70837],[100.45281,13.71008],[100.45076,13.70697],[100.45003,13.70534],[100.44532,13.70752],[100.44232,13.70856],[100.43917,13.7094],[100.43725,13.70478],[100.43604,13.70268],[100.43472,13.69876],[100.43809,13.69311],[100.44249,13.6879],[100.44393,13.68669],[100.44555,13.68413],[100.4465,13.68356],[100.44717,13.68172],[100.44867,13.68146],[100.44845,13.6793],[100.44903,13.67735],[100.44893,13.67531],[100.45157,13.67544],[100.4524,13.67295],[100.45346,13.66885],[100.45219,13.66523],[100.45077,13.66186],[100.4499,13.65933],[100.45718,13.65672],[100.45927,13.65571],[100.46053,13.65544],[100.46275,13.65406],[100.46374,13.6543],[100.46461,13.65569],[100.46649,13.65729],[100.46847,13.65849],[100.47033,13.65899],[100.47008,13.66021],[100.47591,13.66093],[100.47559,13.66357],[100.48211,13.66479],[100.48019,13.66919],[100.48266,13.67243],[100.48855,13.67957],[100.48741,13.68244],[100.48811,13.68239],[100.48897,13.68459],[100.48248,13.68929],[100.48137,13.69097],[100.4817,13.69285],[100.48235,13.69294],[100.48263,13.69482],[100.48635,13.69514],[100.48785,13.69481],[100.48865,13.6953],[100.49002,13.69497],[100.48993,13.6963],[100.49099,13.69923],[100.49318,13.70176],[100.49494,13.70304],[100.50121,13.70639],[100.50413,13.70824],[100.5076,13.71153],[100.51019,13.71517],[100.51184,13.71826],[100.51245,13.72031],[100.51284,13.7243],[100.51245,13.72898],[100.51185,13.73122],[100.5102,13.7345],[100.50796,13.73633],[100.50507,13.73752],[100.49813,13.7391],[100.49395,13.74067],[100.49246,13.74177],[100.48968,13.74544],[100.48849,13.74788],[100.48788,13.75002],[100.48765,13.75383],[100.48803,13.75618],[100.48862,13.75801],[100.48986,13.76042],[100.49089,13.76183],[100.49491,13.76567],[100.49694,13.76824],[100.50007,13.77531],[100.50256,13.78118],[100.50382,13.78374],[100.50542,13.78588],[100.50795,13.78884]]]}},{"type":"Feature","properties":{"z_name":"กรุงธนใต้","z_name_en":"South Western Bangkok","z_code":6,"num_male_src":447401,"num_female_src":498525,"num_male_calc":445558,"num_female_calc":495583,"pop_total_calc":941141,"num_house":380722,"num_commu":295,"n_districts":7,"districts":"ทุ่งครุ, บางขุนเทียน, บางบอน, บางแค, ภาษีเจริญ, ราษฏร์บูรณะ, หนองแขม","area_km2_src":300.07,"area_km2":306.405,"data_flag":"ok"},"geometry":{"type":"Polygon","coordinates":[[[100.36549,13.75393],[100.36202,13.75376],[100.35269,13.75217],[100.35935,13.73801],[100.34019,13.73663],[100.33347,13.73521],[100.33654,13.7294],[100.33611,13.72126],[100.3389,13.71685],[100.33799,13.71406],[100.33844,13.71263],[100.33522,13.71165],[100.33482,13.71317],[100.33262,13.71235],[100.33361,13.71009],[100.3329,13.70643],[100.33028,13.70347],[100.33039,13.69959],[100.33128,13.69752],[100.33246,13.68844],[100.33389,13.68341],[100.33358,13.68153],[100.33623,13.67692],[100.33765,13.67728],[100.33876,13.67036],[100.34134,13.66102],[100.3398,13.65763],[100.33873,13.6521],[100.3383,13.6434],[100.34092,13.63901],[100.34779,13.64039],[100.35209,13.64023],[100.35616,13.64226],[100.35849,13.63674],[100.35864,13.63428],[100.36162,13.63293],[100.36172,13.6315],[100.36504,13.62747],[100.36723,13.62623],[100.37103,13.62557],[100.37203,13.62076],[100.37466,13.61906],[100.37599,13.61369],[100.37633,13.60946],[100.3786,13.60132],[100.38346,13.59355],[100.38098,13.59147],[100.38395,13.58933],[100.38596,13.58498],[100.385,13.57934],[100.3866,13.57799],[100.38697,13.57426],[100.38888,13.57251],[100.38965,13.5697],[100.39142,13.56905],[100.39077,13.56764],[100.39127,13.56335],[100.3947,13.55502],[100.39587,13.5535],[100.40132,13.55291],[100.40336,13.55355],[100.40438,13.55515],[100.40662,13.55446],[100.41067,13.55509],[100.41249,13.55722],[100.41526,13.55715],[100.41477,13.5511],[100.41652,13.55037],[100.41925,13.54729],[100.42003,13.5445],[100.41855,13.54087],[100.41571,13.53942],[100.41278,13.53323],[100.41248,13.5299],[100.41113,13.52619],[100.40875,13.52358],[100.40666,13.51988],[100.40661,13.50803],[100.40987,13.49382],[100.41284,13.49493],[100.41821,13.4954],[100.42163,13.49484],[100.42722,13.49556],[100.43592,13.49592],[100.44064,13.49706],[100.45103,13.49897],[100.4539,13.50015],[100.44879,13.52752],[100.44457,13.55235],[100.4444,13.55461],[100.44673,13.58335],[100.44658,13.5871],[100.44898,13.59045],[100.45216,13.59839],[100.45237,13.60169],[100.45388,13.60594],[100.45805,13.60443],[100.46134,13.60498],[100.46317,13.60612],[100.46521,13.60387],[100.46708,13.59874],[100.46687,13.59692],[100.46968,13.59269],[100.47364,13.59385],[100.47317,13.59924],[100.47688,13.60298],[100.47777,13.60168],[100.47692,13.59934],[100.48074,13.59784],[100.48212,13.59252],[100.4886,13.58936],[100.48963,13.58835],[100.49462,13.58762],[100.49605,13.58819],[100.49906,13.59195],[100.4992,13.59466],[100.50415,13.59751],[100.50777,13.59763],[100.51143,13.59682],[100.5137,13.60258],[100.52104,13.60515],[100.52036,13.60901],[100.51636,13.61292],[100.51685,13.61392],[100.51646,13.6187],[100.51494,13.62437],[100.51425,13.62861],[100.51806,13.6349],[100.51685,13.63639],[100.51723,13.63823],[100.52159,13.64239],[100.51683,13.65455],[100.51763,13.66266],[100.51765,13.66732],[100.52106,13.66914],[100.52047,13.67114],[100.52157,13.67205],[100.52177,13.67505],[100.52045,13.67522],[100.52278,13.67841],[100.52081,13.68022],[100.51601,13.68323],[100.51068,13.68514],[100.50398,13.68598],[100.49691,13.68779],[100.49269,13.69041],[100.49002,13.69497],[100.48263,13.69482],[100.48137,13.69097],[100.48248,13.68929],[100.48897,13.68459],[100.48741,13.68244],[100.48855,13.67957],[100.48019,13.66919],[100.48211,13.66479],[100.47559,13.66357],[100.47591,13.66093],[100.47008,13.66021],[100.46847,13.65849],[100.46275,13.65406],[100.46053,13.65544],[100.4499,13.65933],[100.45346,13.66885],[100.45157,13.67544],[100.44893,13.67531],[100.44867,13.68146],[100.44717,13.68172],[100.44393,13.68669],[100.43809,13.69311],[100.43472,13.69876],[100.43604,13.70268],[100.43917,13.7094],[100.44532,13.70752],[100.45003,13.70534],[100.45281,13.71008],[100.45591,13.70837],[100.45529,13.71182],[100.46354,13.71386],[100.46281,13.7179],[100.46923,13.71597],[100.46946,13.71822],[100.47136,13.72087],[100.47173,13.72285],[100.46779,13.72469],[100.46284,13.73241],[100.46165,13.73869],[100.46201,13.74441],[100.45766,13.7441],[100.45543,13.74201],[100.45435,13.74255],[100.45225,13.74113],[100.43914,13.74004],[100.43246,13.74035],[100.43118,13.74215],[100.42752,13.74239],[100.42132,13.74431],[100.41682,13.74723],[100.40239,13.75021],[100.38961,13.75202],[100.378,13.75342],[100.36549,13.75393]]]}}]}