{"type": "FeatureCollection", "name": "main_road_corridors", "crs": {"type": "name", "properties": {"name": "urn:ogc:def:crs:OGC:1.3:CRS84"}}, "features": [{"type": "Feature", "properties": {"road": "งามวงศ์วาน", "n_points": 3}, "geometry": {"type": "LineString", "coordinates": [[100.5453, 13.8564], [100.56156, 13.84754], [100.57558, 13.83965]]}}, {"type": "Feature", "properties": {"road": "จรัญสนิทวงศ์", "n_points": 10}, "geometry": {"type": "LineString", "coordinates": [[100.48568, 13.7047], [100.47829, 13.71547], [100.47416, 13.72943], [100.47062, 13.74139], [100.46949, 13.7548], [100.4739, 13.76389], [100.48191, 13.77331], [100.49453, 13.7846], [100.50499, 13.79251], [100.51033, 13.80894]]}}, {"type": "Feature", "properties": {"road": "เจริญกรุง (ส่วนต้น)", "n_points": 13}, "geometry": {"type": "LineString", "coordinates": [[100.49426, 13.7474], [100.49644, 13.7473], [100.49765, 13.74724], [100.49975, 13.74714], [100.50108, 13.74708], [100.50321, 13.74698], [100.50568, 13.74562], [100.50801, 13.74379], [100.51046, 13.7419], [100.5123, 13.74043], [100.5126, 13.7393], [100.51319, 13.73746], [100.51354, 13.73617]]}}, {"type": "Feature", "properties": {"road": "เจริญกรุง (ส่วนปลาย)", "n_points": 9}, "geometry": {"type": "LineString", "coordinates": [[100.51354, 13.73617], [100.5154, 13.73172], [100.51564, 13.73017], [100.51624, 13.72542], [100.51664, 13.72223], [100.51512, 13.71859], [100.51136, 13.71011], [100.49703, 13.69716], [100.49276, 13.69338]]}}, {"type": "Feature", "properties": {"road": "เจริญนคร", "n_points": 6}, "geometry": {"type": "LineString", "coordinates": [[100.50866, 13.73004], [100.50886, 13.72861], [100.5089, 13.72148], [100.50819, 13.71879], [100.48853, 13.70303], [100.50399, 13.68211]]}}, {"type": "Feature", "properties": {"road": "แจ้งวัฒนะ", "n_points": 6}, "geometry": {"type": "LineString", "coordinates": [[100.55432, 13.89533], [100.56094, 13.89298], [100.56421, 13.89206], [100.56969, 13.88993], [100.58167, 13.88428], [100.59711, 13.87494]]}}, {"type": "Feature", "properties": {"road": "นครราชสีมา", "n_points": 7}, "geometry": {"type": "LineString", "coordinates": [[100.50662, 13.76633], [100.50763, 13.76833], [100.50825, 13.76968], [100.5094, 13.77206], [100.51174, 13.77687], [100.51315, 13.77983], [100.51503, 13.78359]]}}, {"type": "Feature", "properties": {"road": "นราธิวาสราชนครินทร์", "n_points": 6}, "geometry": {"type": "LineString", "coordinates": [[100.54707, 13.69541], [100.54149, 13.70044], [100.53764, 13.70716], [100.53015, 13.72185], [100.52793, 13.72624], [100.52697, 13.72853]]}}, {"type": "Feature", "properties": {"road": "นวมินทร์", "n_points": 7}, "geometry": {"type": "LineString", "coordinates": [[100.66248, 13.83858], [100.65414, 13.81916], [100.65012, 13.80987], [100.64821, 13.80203], [100.64756, 13.78411], [100.64519, 13.78058], [100.64789, 13.76638]]}}, {"type": "Feature", "properties": {"road": "บรมราชชนนี", "n_points": 4}, "geometry": {"type": "LineString", "coordinates": [[100.39459, 13.78454], [100.46865, 13.78757], [100.48191, 13.77331], [100.48578, 13.76856]]}}, {"type": "Feature", "properties": {"road": "บางนา-ตราด", "n_points": 3}, "geometry": {"type": "LineString", "coordinates": [[100.5912, 13.67614], [100.60673, 13.67314], [100.64432, 13.66574]]}}, {"type": "Feature", "properties": {"road": "ประชาธิปก-ตากสิน-สุขสวัสดิ์", "n_points": 9}, "geometry": {"type": "LineString", "coordinates": [[100.49468, 13.73088], [100.49289, 13.72565], [100.49119, 13.72068], [100.48568, 13.7047], [100.48335, 13.69796], [100.48194, 13.6939], [100.4878, 13.68512], [100.50228, 13.67566], [100.50654, 13.67298]]}}, {"type": "Feature", "properties": {"road": "ประชาสงเคราะห์", "n_points": 5}, "geometry": {"type": "LineString", "coordinates": [[100.56807, 13.77841], [100.55993, 13.77004], [100.55845, 13.77024], [100.55488, 13.76048], [100.55335, 13.75631]]}}, {"type": "Feature", "properties": {"road": "ประเสริฐมนูกิจ", "n_points": 8}, "geometry": {"type": "LineString", "coordinates": [[100.6766, 13.81378], [100.65012, 13.80987], [100.64226, 13.81569], [100.62825, 13.82586], [100.62334, 13.82957], [100.61128, 13.83291], [100.59497, 13.84166], [100.57558, 13.83965]]}}, {"type": "Feature", "properties": {"road": "พญาไท", "n_points": 7}, "geometry": {"type": "LineString", "coordinates": [[100.53859, 13.76546], [100.53436, 13.75791], [100.53178, 13.75324], [100.53076, 13.74618], [100.53023, 13.74273], [100.52964, 13.73871], [100.52875, 13.73281]]}}, {"type": "Feature", "properties": {"road": "พระราม 9", "n_points": 8}, "geometry": {"type": "LineString", "coordinates": [[100.6425, 13.74144], [100.60555, 13.74738], [100.59919, 13.74951], [100.59333, 13.75146], [100.58896, 13.7529], [100.57336, 13.75544], [100.56977, 13.75571], [100.56498, 13.75606]]}}, {"type": "Feature", "properties": {"road": "พระรามที่ 1", "n_points": 8}, "geometry": {"type": "LineString", "coordinates": [[100.54756, 13.74333], [100.54386, 13.74397], [100.54024, 13.74453], [100.53588, 13.74528], [100.53076, 13.74618], [100.52375, 13.74742], [100.52073, 13.74796], [100.51673, 13.74908]]}}, {"type": "Feature", "properties": {"road": "พระรามที่ 2", "n_points": 4}, "geometry": {"type": "LineString", "coordinates": [[100.4878, 13.68512], [100.47603, 13.68129], [100.4302, 13.65706], [100.41062, 13.6424]]}}, {"type": "Feature", "properties": {"road": "พระรามที่ 3", "n_points": 9}, "geometry": {"type": "LineString", "coordinates": [[100.55814, 13.71771], [100.54565, 13.70232], [100.54707, 13.69541], [100.54786, 13.68574], [100.54711, 13.67908], [100.52909, 13.67906], [100.52034, 13.68586], [100.50939, 13.68962], [100.49703, 13.69716]]}}, {"type": "Feature", "properties": {"road": "พระรามที่ 4", "n_points": 15}, "geometry": {"type": "LineString", "coordinates": [[100.5123, 13.74043], [100.51631, 13.73785], [100.51915, 13.73673], [100.52158, 13.73574], [100.52875, 13.73281], [100.53364, 13.73078], [100.53666, 13.72951], [100.54445, 13.72629], [100.55265, 13.72287], [100.55761, 13.72081], [100.55907, 13.72023], [100.56716, 13.71892], [100.58056, 13.71322], [100.58403, 13.71292], [100.59253, 13.71427]]}}, {"type": "Feature", "properties": {"road": "พระรามที่ 5", "n_points": 8}, "geometry": {"type": "LineString", "coordinates": [[100.52995, 13.79346], [100.52765, 13.78925], [100.52441, 13.78333], [100.52233, 13.7795], [100.52071, 13.77655], [100.51908, 13.77358], [100.51525, 13.76652], [100.51349, 13.76331]]}}, {"type": "Feature", "properties": {"road": "พระรามที่ 6", "n_points": 11}, "geometry": {"type": "LineString", "coordinates": [[100.53832, 13.79691], [100.53789, 13.79188], [100.53552, 13.78609], [100.534093, 13.782652], [100.53375, 13.78167], [100.53309, 13.78003], [100.53171, 13.77664], [100.53106, 13.77505], [100.52876, 13.76923], [100.52571, 13.76181], [100.52348, 13.75614]]}}, {"type": "Feature", "properties": {"road": "พหลโยธิน (ส่วนปลาย)", "n_points": 7}, "geometry": {"type": "LineString", "coordinates": [[100.62501, 13.92357], [100.62044, 13.91567], [100.61629, 13.90879], [100.6122, 13.90186], [100.60541, 13.89036], [100.60295, 13.88621], [100.59711, 13.87494]]}}, {"type": "Feature", "properties": {"road": "พหลโยธิน (ส่วนต้น)", "n_points": 9}, "geometry": {"type": "LineString", "coordinates": [[100.59711, 13.87494], [100.57558, 13.83965], [100.57219, 13.83393], [100.56811, 13.82704], [100.55992, 13.81313], [100.55111, 13.79794], [100.54828, 13.78977], [100.54363, 13.7769], [100.53859, 13.76546]]}}, {"type": "Feature", "properties": {"road": "พัฒนาการ", "n_points": 8}, "geometry": {"type": "LineString", "coordinates": [[100.67554, 13.70007], [100.66052, 13.71762], [100.6564, 13.72824], [100.64898, 13.73245], [100.6408, 13.73592], [100.61637, 13.73642], [100.60449, 13.73934], [100.60078, 13.74099]]}}, {"type": "Feature", "properties": {"road": "พิษณุโลก", "n_points": 6}, "geometry": {"type": "LineString", "coordinates": [[100.52054, 13.75728], [100.51542, 13.76167], [100.51349, 13.76331], [100.51044, 13.76589], [100.50763, 13.76833], [100.50478, 13.77089]]}}, {"type": "Feature", "properties": {"road": "เพชรบุรี", "n_points": 15}, "geometry": {"type": "LineString", "coordinates": [[100.60078, 13.74099], [100.58972, 13.74357], [100.5861, 13.74437], [100.58473, 13.74473], [100.57333, 13.74731], [100.56339, 13.74894], [100.55447, 13.75004], [100.54966, 13.75001], [100.5486, 13.74966], [100.54483, 13.74944], [100.54109, 13.74996], [100.53178, 13.75324], [100.52689, 13.75497], [100.52348, 13.75614], [100.52054, 13.75728]]}}, {"type": "Feature", "properties": {"road": "เยาวราช", "n_points": 5}, "geometry": {"type": "LineString", "coordinates": [[100.50262, 13.74504], [100.50446, 13.74416], [100.50698, 13.74236], [100.51146, 13.73944], [100.51225, 13.73697]]}}, {"type": "Feature", "properties": {"road": "รัชดาภิเษก", "n_points": 10}, "geometry": {"type": "LineString", "coordinates": [[100.52846, 13.8283], [100.53899, 13.83045], [100.54124, 13.83006], [100.55759, 13.83064], [100.56811, 13.82704], [100.57496, 13.80531], [100.57422, 13.78973], [100.57363, 13.77845], [100.57279, 13.76964], [100.56498, 13.75606]]}}, {"type": "Feature", "properties": {"road": "ราชดำเนิน", "n_points": 10}, "geometry": {"type": "LineString", "coordinates": [[100.49357, 13.75245], [100.49479, 13.75703], [100.49894, 13.75726], [100.50176, 13.75633], [100.50515, 13.75602], [100.5059, 13.75633], [100.50768, 13.75997], [100.50928, 13.76339], [100.51044, 13.76589], [100.51154, 13.76822]]}}, {"type": "Feature", "properties": {"road": "ราชดำริ", "n_points": 4}, "geometry": {"type": "LineString", "coordinates": [[100.53666, 13.72951], [100.53854, 13.73439], [100.54024, 13.74453], [100.54109, 13.74996]]}}, {"type": "Feature", "properties": {"road": "ราชวิถี", "n_points": 9}, "geometry": {"type": "LineString", "coordinates": [[100.49453, 13.7846], [100.50566, 13.77963], [100.50844, 13.77837], [100.51174, 13.77687], [100.5155, 13.77518], [100.51908, 13.77358], [100.52593, 13.77047], [100.52876, 13.76923], [100.53859, 13.76546]]}}, {"type": "Feature", "properties": {"road": "รามคำแหง (ส่วนปลาย)", "n_points": 9}, "geometry": {"type": "LineString", "coordinates": [[100.74466, 13.81665], [100.73682, 13.81238], [100.71551, 13.79958], [100.70206, 13.79271], [100.68698, 13.78438], [100.68281, 13.7821], [100.65772, 13.76756], [100.65569, 13.76634], [100.64874, 13.76308]]}}, {"type": "Feature", "properties": {"road": "รามคำแหง (ส่วนต้น)", "n_points": 8}, "geometry": {"type": "LineString", "coordinates": [[100.64874, 13.76308], [100.64562, 13.76272], [100.62973, 13.76092], [100.6245, 13.76034], [100.61575, 13.75758], [100.61354, 13.75539], [100.60555, 13.74738], [100.60078, 13.74099]]}}, {"type": "Feature", "properties": {"road": "รามอินทรา", "n_points": 8}, "geometry": {"type": "LineString", "coordinates": [[100.7176, 13.81268], [100.68765, 13.81461], [100.67406, 13.82737], [100.66248, 13.83858], [100.64962, 13.84558], [100.63141, 13.85541], [100.61468, 13.8644], [100.59711, 13.87494]]}}, {"type": "Feature", "properties": {"road": "ลาดพร้าว", "n_points": 12}, "geometry": {"type": "LineString", "coordinates": [[100.64789, 13.76638], [100.64536, 13.76606], [100.64196, 13.76785], [100.62913, 13.77503], [100.62427, 13.77776], [100.6182, 13.78115], [100.60516, 13.78844], [100.59976, 13.79145], [100.59376, 13.79482], [100.5833, 13.80068], [100.57496, 13.80531], [100.55992, 13.81313]]}}, {"type": "Feature", "properties": {"road": "วิภาวดีรังสิต", "n_points": 6}, "geometry": {"type": "LineString", "coordinates": [[100.58167, 13.88428], [100.56156, 13.84754], [100.55759, 13.83064], [100.55992, 13.81313], [100.56153, 13.78933], [100.54808, 13.76389]]}}, {"type": "Feature", "properties": {"road": "ศรีนครินทร์", "n_points": 9}, "geometry": {"type": "LineString", "coordinates": [[100.64432, 13.66574], [100.64604, 13.67775], [100.64671, 13.68611], [100.64375, 13.71275], [100.6408, 13.73592], [100.6425, 13.74144], [100.64526, 13.75191], [100.64562, 13.76272], [100.64536, 13.76606]]}}, {"type": "Feature", "properties": {"road": "ศรีบูรพา", "n_points": 3}, "geometry": {"type": "LineString", "coordinates": [[100.64756, 13.78411], [100.65461, 13.77277], [100.65772, 13.76756]]}}, {"type": "Feature", "properties": {"road": "ศรีอยุธยา", "n_points": 8}, "geometry": {"type": "LineString", "coordinates": [[100.5424, 13.75599], [100.53436, 13.75791], [100.52571, 13.76181], [100.52293, 13.76306], [100.51525, 13.76652], [100.51154, 13.76822], [100.50825, 13.76968], [100.50501, 13.77115]]}}, {"type": "Feature", "properties": {"road": "สวรรคโลก", "n_points": 6}, "geometry": {"type": "LineString", "coordinates": [[100.52837, 13.77614], [100.52746, 13.77421], [100.52719, 13.77363], [100.52593, 13.77047], [100.52293, 13.76306], [100.52054, 13.75728]]}}, {"type": "Feature", "properties": {"road": "สาทร", "n_points": 4}, "geometry": {"type": "LineString", "coordinates": [[100.54445, 13.72629], [100.53015, 13.72185], [100.51983, 13.71883], [100.51512, 13.71859]]}}, {"type": "Feature", "properties": {"road": "สามเสน", "n_points": 9}, "geometry": {"type": "LineString", "coordinates": [[100.52135, 13.79725], [100.51463, 13.78937], [100.51179, 13.78536], [100.50979, 13.78128], [100.50844, 13.77837], [100.50501, 13.77115], [100.50373, 13.76962], [100.50113, 13.76694], [100.49828, 13.76218]]}}, {"type": "Feature", "properties": {"road": "สีลม", "n_points": 7}, "geometry": {"type": "LineString", "coordinates": [[100.53666, 13.72951], [100.53066, 13.72723], [100.52793, 13.72624], [100.52557, 13.72541], [100.51926, 13.72314], [100.51793, 13.72267], [100.51664, 13.72223]]}}, {"type": "Feature", "properties": {"road": "สุขุมวิท", "n_points": 16}, "geometry": {"type": "LineString", "coordinates": [[100.60673, 13.67314], [100.60906, 13.67882], [100.61053, 13.68431], [100.60585, 13.69577], [100.59943, 13.7089], [100.59416, 13.71313], [100.59253, 13.71427], [100.58442, 13.72005], [100.5794, 13.72361], [100.57108, 13.72949], [100.56976, 13.73043], [100.56601, 13.73304], [100.56525, 13.73359], [100.56131, 13.73641], [100.55298, 13.74215], [100.54756, 13.74333]]}}, {"type": "Feature", "properties": {"road": "สุรศักดิ์", "n_points": 4}, "geometry": {"type": "LineString", "coordinates": [[100.51887, 13.72602], [100.51926, 13.72314], [100.51983, 13.71883], [100.51872, 13.70785]]}}, {"type": "Feature", "properties": {"road": "เสรีไทย", "n_points": 12}, "geometry": {"type": "LineString", "coordinates": [[100.7176, 13.81268], [100.71223, 13.80528], [100.7051, 13.80133], [100.69127, 13.79537], [100.68368, 13.79209], [100.68119, 13.79105], [100.67776, 13.78843], [100.67558, 13.7858], [100.67092, 13.78173], [100.66232, 13.77709], [100.65461, 13.77277], [100.64789, 13.76638]]}}, {"type": "Feature", "properties": {"road": "หลานหลวง", "n_points": 4}, "geometry": {"type": "LineString", "coordinates": [[100.52054, 13.75728], [100.51608, 13.75659], [100.50964, 13.75643], [100.5059, 13.75633]]}}, {"type": "Feature", "properties": {"road": "อรุณอมรินทร์", "n_points": 5}, "geometry": {"type": "LineString", "coordinates": [[100.4957, 13.73444], [100.48756, 13.74217], [100.48358, 13.75237], [100.4835, 13.75602], [100.48578, 13.76856]]}}, {"type": "Feature", "properties": {"road": "อโศกดินแดง", "n_points": 5}, "geometry": {"type": "LineString", "coordinates": [[100.53859, 13.76546], [100.54276, 13.76279], [100.54808, 13.76389], [100.55488, 13.76048], [100.56498, 13.75606]]}}, {"type": "Feature", "properties": {"road": "อินทรพิทักษ์-เพชรเกษม", "n_points": 14}, "geometry": {"type": "LineString", "coordinates": [[100.33238, 13.7048], [100.34326, 13.70548], [100.36412, 13.70716], [100.37385, 13.70793], [100.3782, 13.70828], [100.3959, 13.70972], [100.4036, 13.71035], [100.40831, 13.71074], [100.42084, 13.71175], [100.42848, 13.7124], [100.45808, 13.72078], [100.47416, 13.72943], [100.48714, 13.72729], [100.49289, 13.72565]]}}]}