{"type": "FeatureCollection", "name": "travel_time_survey_junctions", "crs": {"type": "name", "properties": {"name": "urn:ogc:def:crs:OGC:1.3:CRS84"}}, "features": [{"type": "Feature", "properties": {"name": "พงษ์เพชร", "signal_code": "183", "n_corridors": 1, "corridors": "งามวงศ์วาน", "note": null}, "geometry": {"type": "Point", "coordinates": [100.5453, 13.8564]}}, {"type": "Feature", "properties": {"name": "บางเขน", "signal_code": "361", "n_corridors": 2, "corridors": "งามวงศ์วาน, วิภาวดีรังสิต", "note": null}, "geometry": {"type": "Point", "coordinates": [100.56156, 13.84754]}}, {"type": "Feature", "properties": {"name": "เกษตร", "signal_code": "200", "n_corridors": 3, "corridors": "งามวงศ์วาน, ประเสริฐมนูกิจ, พหลโยธิน (ส่วนต้น)", "note": null}, "geometry": {"type": "Point", "coordinates": [100.57558, 13.83965]}}, {"type": "Feature", "properties": {"name": "มไหสวรรย์", "signal_code": "127", "n_corridors": 2, "corridors": "จรัญสนิทวงศ์, ประชาธิปก-ตากสิน-สุขสวัสดิ์", "note": null}, "geometry": {"type": "Point", "coordinates": [100.48568, 13.7047]}}, {"type": "Feature", "properties": {"name": "รัชดา-ราชพฤกษ์", "signal_code": "610", "n_corridors": 1, "corridors": "จรัญสนิทวงศ์", "note": null}, "geometry": {"type": "Point", "coordinates": [100.47829, 13.71547]}}, {"type": "Feature", "properties": {"name": "ท่าพระ", "signal_code": "153", "n_corridors": 2, "corridors": "จรัญสนิทวงศ์, อินทรพิทักษ์-เพชรเกษม", "note": null}, "geometry": {"type": "Point", "coordinates": [100.47416, 13.72943]}}, {"type": "Feature", "properties": {"name": "พาณิชยการธนบุรี", "signal_code": "250", "n_corridors": 1, "corridors": "จรัญสนิทวงศ์", "note": null}, "geometry": {"type": "Point", "coordinates": [100.47062, 13.74139]}}, {"type": "Feature", "properties": {"name": "ไฟฉาย", "signal_code": "154", "n_corridors": 1, "corridors": "จรัญสนิทวงศ์", "note": null}, "geometry": {"type": "Point", "coordinates": [100.46949, 13.7548]}}, {"type": "Feature", "properties": {"name": "บางขุนนนท์", "signal_code": "128", "n_corridors": 1, "corridors": "จรัญสนิทวงศ์", "note": null}, "geometry": {"type": "Point", "coordinates": [100.4739, 13.76389]}}, {"type": "Feature", "properties": {"name": "บรมราชชนนี", "signal_code": "138", "n_corridors": 2, "corridors": "จรัญสนิทวงศ์, บรมราชชนนี", "note": null}, "geometry": {"type": "Point", "coordinates": [100.48191, 13.77331]}}, {"type": "Feature", "properties": {"name": "บางพลัด", "signal_code": "152", "n_corridors": 2, "corridors": "จรัญสนิทวงศ์, ราชวิถี", "note": null}, "geometry": {"type": "Point", "coordinates": [100.49453, 13.7846]}}, {"type": "Feature", "properties": {"name": "ใต้สถานีรถไฟฟ้าบางพลัด", "signal_code": "617", "n_corridors": 1, "corridors": "จรัญสนิทวงศ์", "note": null}, "geometry": {"type": "Point", "coordinates": [100.50499, 13.79251]}}, {"type": "Feature", "properties": {"name": "สุดเขตกรุงเทพฯ", "signal_code": null, "n_corridors": 1, "corridors": "จรัญสนิทวงศ์", "note": null}, "geometry": {"type": "Point", "coordinates": [100.51033, 13.80894]}}, {"type": "Feature", "properties": {"name": "วงเวียน รด.", "signal_code": "382", "n_corridors": 1, "corridors": "เจริญกรุง (ส่วนต้น)", "note": null}, "geometry": {"type": "Point", "coordinates": [100.49426, 13.7474]}}, {"type": "Feature", "properties": {"name": "สะพานมอญ", "signal_code": "081", "n_corridors": 1, "corridors": "เจริญกรุง (ส่วนต้น)", "note": null}, "geometry": {"type": "Point", "coordinates": [100.49644, 13.7473]}}, {"type": "Feature", "properties": {"name": "สี่กั๊กพระยาศรี", "signal_code": "176", "n_corridors": 1, "corridors": "เจริญกรุง (ส่วนต้น)", "note": null}, "geometry": {"type": "Point", "coordinates": [100.49765, 13.74724]}}, {"type": "Feature", "properties": {"name": "เฉลิมกรุง", "signal_code": "055", "n_corridors": 1, "corridors": "เจริญกรุง (ส่วนต้น)", "note": null}, "geometry": {"type": "Point", "coordinates": [100.49975, 13.74714]}}, {"type": "Feature", "properties": {"name": "อุณากรรณ", "signal_code": "130", "n_corridors": 1, "corridors": "เจริญกรุง (ส่วนต้น)", "note": null}, "geometry": {"type": "Point", "coordinates": [100.50108, 13.74708]}}, {"type": "Feature", "properties": {"name": "สามยอด", "signal_code": "056", "n_corridors": 1, "corridors": "เจริญกรุง (ส่วนต้น)", "note": null}, "geometry": {"type": "Point", "coordinates": [100.50321, 13.74698]}}, {"type": "Feature", "properties": {"name": "เอส. เอ. บี.", "signal_code": "053", "n_corridors": 1, "corridors": "เจริญกรุง (ส่วนต้น)", "note": null}, "geometry": {"type": "Point", "coordinates": [100.50568, 13.74562]}}, {"type": "Feature", "properties": {"name": "เสือป่า", "signal_code": "052", "n_corridors": 1, "corridors": "เจริญกรุง (ส่วนต้น)", "note": null}, "geometry": {"type": "Point", "coordinates": [100.50801, 13.74379]}}, {"type": "Feature", "properties": {"name": "แปลงนาม", "signal_code": "131", "n_corridors": 1, "corridors": "เจริญกรุง (ส่วนต้น)", "note": null}, "geometry": {"type": "Point", "coordinates": [100.51046, 13.7419]}}, {"type": "Feature", "properties": {"name": "หมอมี", "signal_code": "046", "n_corridors": 2, "corridors": "พระรามที่ 4, เจริญกรุง (ส่วนต้น)", "note": null}, "geometry": {"type": "Point", "coordinates": [100.5123, 13.74043]}}, {"type": "Feature", "properties": {"name": "ลำพูนไชย", "signal_code": "048", "n_corridors": 1, "corridors": "เจริญกรุง (ส่วนต้น)", "note": null}, "geometry": {"type": "Point", "coordinates": [100.5126, 13.7393]}}, {"type": "Feature", "properties": {"name": "วงเวียนโอเดียน", "signal_code": null, "n_corridors": 1, "corridors": "เจริญกรุง (ส่วนต้น)", "note": null}, "geometry": {"type": "Point", "coordinates": [100.51319, 13.73746]}}, {"type": "Feature", "properties": {"name": "ทรงวาด", "signal_code": null, "n_corridors": 2, "corridors": "เจริญกรุง (ส่วนต้น), เจริญกรุง (ส่วนปลาย)", "note": null}, "geometry": {"type": "Point", "coordinates": [100.51354, 13.73617]}}, {"type": "Feature", "properties": {"name": "เจริญกรุง-มหาพฤฒาราม", "signal_code": null, "n_corridors": 1, "corridors": "เจริญกรุง (ส่วนปลาย)", "note": null}, "geometry": {"type": "Point", "coordinates": [100.5154, 13.73172]}}, {"type": "Feature", "properties": {"name": "สี่พระยา", "signal_code": "141", "n_corridors": 1, "corridors": "เจริญกรุง (ส่วนปลาย)", "note": null}, "geometry": {"type": "Point", "coordinates": [100.51564, 13.73017]}}, {"type": "Feature", "properties": {"name": "สุรวงศ์", "signal_code": "283", "n_corridors": 1, "corridors": "เจริญกรุง (ส่วนปลาย)", "note": null}, "geometry": {"type": "Point", "coordinates": [100.51624, 13.72542]}}, {"type": "Feature", "properties": {"name": "บางรัก", "signal_code": "004", "n_corridors": 2, "corridors": "สีลม, เจริญกรุง (ส่วนปลาย)", "note": null}, "geometry": {"type": "Point", "coordinates": [100.51664, 13.72223]}}, {"type": "Feature", "properties": {"name": "เฉลิมพันธ์", "signal_code": "214", "n_corridors": 2, "corridors": "สาทร, เจริญกรุง (ส่วนปลาย)", "note": null}, "geometry": {"type": "Point", "coordinates": [100.51512, 13.71859]}}, {"type": "Feature", "properties": {"name": "ตรอกจันทน์", "signal_code": "033", "n_corridors": 1, "corridors": "เจริญกรุง (ส่วนปลาย)", "note": null}, "geometry": {"type": "Point", "coordinates": [100.51136, 13.71011]}}, {"type": "Feature", "properties": {"name": "ถนนตก", "signal_code": "171", "n_corridors": 2, "corridors": "พระรามที่ 3, เจริญกรุง (ส่วนปลาย)", "note": null}, "geometry": {"type": "Point", "coordinates": [100.49703, 13.69716]}}, {"type": "Feature", "properties": {"name": "สุดถนนเจริญกรุง", "signal_code": null, "n_corridors": 1, "corridors": "เจริญกรุง (ส่วนปลาย)", "note": null}, "geometry": {"type": "Point", "coordinates": [100.49276, 13.69338]}}, {"type": "Feature", "properties": {"name": "คลองสาน", "signal_code": "091", "n_corridors": 1, "corridors": "เจริญนคร", "note": null}, "geometry": {"type": "Point", "coordinates": [100.50866, 13.73004]}}, {"type": "Feature", "properties": {"name": "เจริญรัถ", "signal_code": "091", "n_corridors": 1, "corridors": "เจริญนคร", "note": null}, "geometry": {"type": "Point", "coordinates": [100.50886, 13.72861]}}, {"type": "Feature", "properties": {"name": "กรุงธนบุรี (เหนือ)", "signal_code": "212", "n_corridors": 1, "corridors": "เจริญนคร", "note": null}, "geometry": {"type": "Point", "coordinates": [100.5089, 13.72148]}}, {"type": "Feature", "properties": {"name": "กรุงธนบุรี (ใต้)", "signal_code": "213", "n_corridors": 1, "corridors": "เจริญนคร", "note": null}, "geometry": {"type": "Point", "coordinates": [100.50819, 13.71879]}}, {"type": "Feature", "properties": {"name": "บุคคโล", "signal_code": "186", "n_corridors": 1, "corridors": "เจริญนคร", "note": null}, "geometry": {"type": "Point", "coordinates": [100.48853, 13.70303]}}, {"type": "Feature", "properties": {"name": "ราษฎร์บูรณะ", "signal_code": "281", "n_corridors": 1, "corridors": "เจริญนคร", "note": null}, "geometry": {"type": "Point", "coordinates": [100.50399, 13.68211]}}, {"type": "Feature", "properties": {"name": "คลองประปา", "signal_code": null, "n_corridors": 1, "corridors": "แจ้งวัฒนะ", "note": null}, "geometry": {"type": "Point", "coordinates": [100.55432, 13.89533]}}, {"type": "Feature", "properties": {"name": "เมืองทอง 1", "signal_code": "359", "n_corridors": 1, "corridors": "แจ้งวัฒนะ", "note": null}, "geometry": {"type": "Point", "coordinates": [100.56094, 13.89298]}}, {"type": "Feature", "properties": {"name": "ศูนย์ราชการ", "signal_code": null, "n_corridors": 1, "corridors": "แจ้งวัฒนะ", "note": null}, "geometry": {"type": "Point", "coordinates": [100.56421, 13.89206]}}, {"type": "Feature", "properties": {"name": "การสื่อสาร", "signal_code": null, "n_corridors": 1, "corridors": "แจ้งวัฒนะ", "note": null}, "geometry": {"type": "Point", "coordinates": [100.56969, 13.88993]}}, {"type": "Feature", "properties": {"name": "หลักสี่", "signal_code": "360", "n_corridors": 2, "corridors": "วิภาวดีรังสิต, แจ้งวัฒนะ", "note": null}, "geometry": {"type": "Point", "coordinates": [100.58167, 13.88428]}}, {"type": "Feature", "properties": {"name": "วงเวียนอนุสาวรีย์หลักสี่", "signal_code": "346", "n_corridors": 4, "corridors": "พหลโยธิน (ส่วนต้น), พหลโยธิน (ส่วนปลาย), รามอินทรา, แจ้งวัฒนะ", "note": null}, "geometry": {"type": "Point", "coordinates": [100.59711, 13.87494]}}, {"type": "Feature", "properties": {"name": "ประชาเกษม", "signal_code": "083", "n_corridors": 1, "corridors": "นครราชสีมา", "note": null}, "geometry": {"type": "Point", "coordinates": [100.50662, 13.76633]}}, {"type": "Feature", "properties": {"name": "วังแดง", "signal_code": "074", "n_corridors": 2, "corridors": "นครราชสีมา, พิษณุโลก", "note": null}, "geometry": {"type": "Point", "coordinates": [100.50763, 13.76833]}}, {"type": "Feature", "properties": {"name": "หอประชุม ทบ.", "signal_code": "075", "n_corridors": 2, "corridors": "นครราชสีมา, ศรีอยุธยา", "note": null}, "geometry": {"type": "Point", "coordinates": [100.50825, 13.76968]}}, {"type": "Feature", "properties": {"name": "อู่ทองนอก", "signal_code": "084", "n_corridors": 1, "corridors": "นครราชสีมา", "note": null}, "geometry": {"type": "Point", "coordinates": [100.5094, 13.77206]}}, {"type": "Feature", "properties": {"name": "การเรือน", "signal_code": "014", "n_corridors": 2, "corridors": "นครราชสีมา, ราชวิถี", "note": null}, "geometry": {"type": "Point", "coordinates": [100.51174, 13.77687]}}, {"type": "Feature", "properties": {"name": "สวนรื่นฤดี", "signal_code": "085", "n_corridors": 1, "corridors": "นครราชสีมา", "note": null}, "geometry": {"type": "Point", "coordinates": [100.51315, 13.77983]}}, {"type": "Feature", "properties": {"name": "ร่วมจิตต์", "signal_code": "149", "n_corridors": 1, "corridors": "นครราชสีมา", "note": null}, "geometry": {"type": "Point", "coordinates": [100.51503, 13.78359]}}, {"type": "Feature", "properties": {"name": "พระรามที่ 3-นราธิวาส", "signal_code": "378", "n_corridors": 2, "corridors": "นราธิวาสราชนครินทร์, พระรามที่ 3", "note": null}, "geometry": {"type": "Point", "coordinates": [100.54707, 13.69541]}}, {"type": "Feature", "properties": {"name": "รัชดา-นราธิวาส", "signal_code": "223", "n_corridors": 1, "corridors": "นราธิวาสราชนครินทร์", "note": null}, "geometry": {"type": "Point", "coordinates": [100.54149, 13.70044]}}, {"type": "Feature", "properties": {"name": "จันทน์-นราธิวาส", "signal_code": "243", "n_corridors": 1, "corridors": "นราธิวาสราชนครินทร์", "note": null}, "geometry": {"type": "Point", "coordinates": [100.53764, 13.70716]}}, {"type": "Feature", "properties": {"name": "สาทร-นราธิวาส", "signal_code": "220", "n_corridors": 2, "corridors": "นราธิวาสราชนครินทร์, สาทร", "note": null}, "geometry": {"type": "Point", "coordinates": [100.53015, 13.72185]}}, {"type": "Feature", "properties": {"name": "สีลม-นราธิวาส", "signal_code": "218", "n_corridors": 2, "corridors": "นราธิวาสราชนครินทร์, สีลม", "note": null}, "geometry": {"type": "Point", "coordinates": [100.52793, 13.72624]}}, {"type": "Feature", "properties": {"name": "สุรวงศ์-นราธิวาส", "signal_code": "216", "n_corridors": 1, "corridors": "นราธิวาสราชนครินทร์", "note": null}, "geometry": {"type": "Point", "coordinates": [100.52697, 13.72853]}}, {"type": "Feature", "properties": {"name": "รามอินทรา กม.8", "signal_code": "364", "n_corridors": 2, "corridors": "นวมินทร์, รามอินทรา", "note": null}, "geometry": {"type": "Point", "coordinates": [100.66248, 13.83858]}}, {"type": "Feature", "properties": {"name": "นวมินทร์–รัชดา-รามอินทรา", "signal_code": null, "n_corridors": 1, "corridors": "นวมินทร์", "note": null}, "geometry": {"type": "Point", "coordinates": [100.65414, 13.81916]}}, {"type": "Feature", "properties": {"name": "นวลจันทร์-นวมินทร์", "signal_code": "375", "n_corridors": 2, "corridors": "นวมินทร์, ประเสริฐมนูกิจ", "note": null}, "geometry": {"type": "Point", "coordinates": [100.65012, 13.80987]}}, {"type": "Feature", "properties": {"name": "โพธิ์แก้ว", "signal_code": "411", "n_corridors": 1, "corridors": "นวมินทร์", "note": null}, "geometry": {"type": "Point", "coordinates": [100.64821, 13.80203]}}, {"type": "Feature", "properties": {"name": "การเคหะ", "signal_code": "480", "n_corridors": 2, "corridors": "นวมินทร์, ศรีบูรพา", "note": null}, "geometry": {"type": "Point", "coordinates": [100.64756, 13.78411]}}, {"type": "Feature", "properties": {"name": "นวมินทร์-แฮปปี้แลนด์", "signal_code": "374", "n_corridors": 1, "corridors": "นวมินทร์", "note": null}, "geometry": {"type": "Point", "coordinates": [100.64519, 13.78058]}}, {"type": "Feature", "properties": {"name": "บางกะปิ", "signal_code": "187", "n_corridors": 3, "corridors": "นวมินทร์, ลาดพร้าว, เสรีไทย", "note": null}, "geometry": {"type": "Point", "coordinates": [100.64789, 13.76638]}}, {"type": "Feature", "properties": {"name": "บรมราชชนนี-พุทธมณฑลสาย 2", "signal_code": null, "n_corridors": 1, "corridors": "บรมราชชนนี", "note": null}, "geometry": {"type": "Point", "coordinates": [100.39459, 13.78454]}}, {"type": "Feature", "properties": {"name": "ต่างระดับสิรินธร", "signal_code": null, "n_corridors": 1, "corridors": "บรมราชชนนี", "note": null}, "geometry": {"type": "Point", "coordinates": [100.46865, 13.78757]}}, {"type": "Feature", "properties": {"name": "อรุณอมรินทร์", "signal_code": "136", "n_corridors": 2, "corridors": "บรมราชชนนี, อรุณอมรินทร์", "note": null}, "geometry": {"type": "Point", "coordinates": [100.48578, 13.76856]}}, {"type": "Feature", "properties": {"name": "สรรพาวุธ", "signal_code": "173", "n_corridors": 1, "corridors": "บางนา-ตราด", "note": null}, "geometry": {"type": "Point", "coordinates": [100.5912, 13.67614]}}, {"type": "Feature", "properties": {"name": "บางนา", "signal_code": "322", "n_corridors": 2, "corridors": "บางนา-ตราด, สุขุมวิท", "note": null}, "geometry": {"type": "Point", "coordinates": [100.60673, 13.67314]}}, {"type": "Feature", "properties": {"name": "ต่างระดับศรีเอี่ยม", "signal_code": null, "n_corridors": 2, "corridors": "บางนา-ตราด, ศรีนครินทร์", "note": null}, "geometry": {"type": "Point", "coordinates": [100.64432, 13.66574]}}, {"type": "Feature", "properties": {"name": "บ้านแขก", "signal_code": "060", "n_corridors": 1, "corridors": "ประชาธิปก-ตากสิน-สุขสวัสดิ์", "note": null}, "geometry": {"type": "Point", "coordinates": [100.49468, 13.73088]}}, {"type": "Feature", "properties": {"name": "วงเวียนใหญ่", "signal_code": "225-226", "n_corridors": 2, "corridors": "ประชาธิปก-ตากสิน-สุขสวัสดิ์, อินทรพิทักษ์-เพชรเกษม", "note": null}, "geometry": {"type": "Point", "coordinates": [100.49289, 13.72565]}}, {"type": "Feature", "properties": {"name": "ตากสิน", "signal_code": "210", "n_corridors": 1, "corridors": "ประชาธิปก-ตากสิน-สุขสวัสดิ์", "note": null}, "geometry": {"type": "Point", "coordinates": [100.49119, 13.72068]}}, {"type": "Feature", "properties": {"name": "ตากสิน 37", "signal_code": "261", "n_corridors": 1, "corridors": "ประชาธิปก-ตากสิน-สุขสวัสดิ์", "note": null}, "geometry": {"type": "Point", "coordinates": [100.48335, 13.69796]}}, {"type": "Feature", "properties": {"name": "ดาวคะนอง", "signal_code": "111", "n_corridors": 1, "corridors": "ประชาธิปก-ตากสิน-สุขสวัสดิ์", "note": null}, "geometry": {"type": "Point", "coordinates": [100.48194, 13.6939]}}, {"type": "Feature", "properties": {"name": "บางปะแก้ว", "signal_code": "403", "n_corridors": 2, "corridors": "ประชาธิปก-ตากสิน-สุขสวัสดิ์, พระรามที่ 2", "note": null}, "geometry": {"type": "Point", "coordinates": [100.4878, 13.68512]}}, {"type": "Feature", "properties": {"name": "ราษฎร์พัฒนา", "signal_code": "438", "n_corridors": 1, "corridors": "ประชาธิปก-ตากสิน-สุขสวัสดิ์", "note": null}, "geometry": {"type": "Point", "coordinates": [100.50228, 13.67566]}}, {"type": "Feature", "properties": {"name": "ประชาอุทิศ (เขตราษฎร์บูรณะ)", "signal_code": "440", "n_corridors": 1, "corridors": "ประชาธิปก-ตากสิน-สุขสวัสดิ์", "note": null}, "geometry": {"type": "Point", "coordinates": [100.50654, 13.67298]}}, {"type": "Feature", "properties": {"name": "ตลาดห้วยขวาง", "signal_code": null, "n_corridors": 1, "corridors": "ประชาสงเคราะห์", "note": null}, "geometry": {"type": "Point", "coordinates": [100.56807, 13.77841]}}, {"type": "Feature", "properties": {"name": "ทางโค้งพาณิชยการจำนงค์", "signal_code": null, "n_corridors": 1, "corridors": "ประชาสงเคราะห์", "note": null}, "geometry": {"type": "Point", "coordinates": [100.55993, 13.77004]}}, {"type": "Feature", "properties": {"name": "มิตรไมตรี", "signal_code": null, "n_corridors": 1, "corridors": "ประชาสงเคราะห์", "note": null}, "geometry": {"type": "Point", "coordinates": [100.55845, 13.77024]}}, {"type": "Feature", "properties": {"name": "ประชาสงเคราะห์", "signal_code": "164", "n_corridors": 2, "corridors": "ประชาสงเคราะห์, อโศกดินแดง", "note": null}, "geometry": {"type": "Point", "coordinates": [100.55488, 13.76048]}}, {"type": "Feature", "properties": {"name": "ถนนจตุรทิศ", "signal_code": null, "n_corridors": 1, "corridors": "ประชาสงเคราะห์", "note": null}, "geometry": {"type": "Point", "coordinates": [100.55335, 13.75631]}}, {"type": "Feature", "properties": {"name": "ประเสริฐมนูกิจ-ต่างระดับรามอินทรา", "signal_code": null, "n_corridors": 1, "corridors": "ประเสริฐมนูกิจ", "note": null}, "geometry": {"type": "Point", "coordinates": [100.6766, 13.81378]}}, {"type": "Feature", "properties": {"name": "ประเสริฐมนูกิจ–รัชดา-รามอินทรา", "signal_code": null, "n_corridors": 1, "corridors": "ประเสริฐมนูกิจ", "note": null}, "geometry": {"type": "Point", "coordinates": [100.64226, 13.81569]}}, {"type": "Feature", "properties": {"name": "ประดิษฐ์มนูธรรม", "signal_code": "806", "n_corridors": 1, "corridors": "ประเสริฐมนูกิจ", "note": null}, "geometry": {"type": "Point", "coordinates": [100.62825, 13.82586]}}, {"type": "Feature", "properties": {"name": "สุคนธสวัสดิ์", "signal_code": null, "n_corridors": 1, "corridors": "ประเสริฐมนูกิจ", "note": null}, "geometry": {"type": "Point", "coordinates": [100.62334, 13.82957]}}, {"type": "Feature", "properties": {"name": "เกษตร-เสนานิคม", "signal_code": null, "n_corridors": 1, "corridors": "ประเสริฐมนูกิจ", "note": null}, "geometry": {"type": "Point", "coordinates": [100.61128, 13.83291]}}, {"type": "Feature", "properties": {"name": "เกษตร-ลาดปลาเค้า", "signal_code": null, "n_corridors": 1, "corridors": "ประเสริฐมนูกิจ", "note": null}, "geometry": {"type": "Point", "coordinates": [100.59497, 13.84166]}}, {"type": "Feature", "properties": {"name": "วงเวียนอนุสาวรีย์ชัยสมรภูมิ", "signal_code": "256", "n_corridors": 4, "corridors": "พญาไท, พหลโยธิน (ส่วนต้น), ราชวิถี, อโศกดินแดง", "note": null}, "geometry": {"type": "Point", "coordinates": [100.53859, 13.76546]}}, {"type": "Feature", "properties": {"name": "พญาไท", "signal_code": "110", "n_corridors": 2, "corridors": "พญาไท, ศรีอยุธยา", "note": null}, "geometry": {"type": "Point", "coordinates": [100.53436, 13.75791]}}, {"type": "Feature", "properties": {"name": "ราชเทวี", "signal_code": "018", "n_corridors": 2, "corridors": "พญาไท, เพชรบุรี", "note": null}, "geometry": {"type": "Point", "coordinates": [100.53178, 13.75324]}}, {"type": "Feature", "properties": {"name": "ปทุมวัน", "signal_code": "096", "n_corridors": 2, "corridors": "พญาไท, พระรามที่ 1", "note": null}, "geometry": {"type": "Point", "coordinates": [100.53076, 13.74618]}}, {"type": "Feature", "properties": {"name": "จุฬาฯ 12", "signal_code": "024", "n_corridors": 1, "corridors": "พญาไท", "note": null}, "geometry": {"type": "Point", "coordinates": [100.53023, 13.74273]}}, {"type": "Feature", "properties": {"name": "หน้าจุฬาฯ", "signal_code": "064", "n_corridors": 1, "corridors": "พญาไท", "note": null}, "geometry": {"type": "Point", "coordinates": [100.52964, 13.73871]}}, {"type": "Feature", "properties": {"name": "สามย่าน", "signal_code": "088", "n_corridors": 2, "corridors": "พญาไท, พระรามที่ 4", "note": null}, "geometry": {"type": "Point", "coordinates": [100.52875, 13.73281]}}, {"type": "Feature", "properties": {"name": "ต่างระดับศรีนครินทร์", "signal_code": null, "n_corridors": 2, "corridors": "พระราม 9, ศรีนครินทร์", "note": null}, "geometry": {"type": "Point", "coordinates": [100.6425, 13.74144]}}, {"type": "Feature", "properties": {"name": "รามคำแหง", "signal_code": "151", "n_corridors": 2, "corridors": "พระราม 9, รามคำแหง (ส่วนต้น)", "note": null}, "geometry": {"type": "Point", "coordinates": [100.60555, 13.74738]}}, {"type": "Feature", "properties": {"name": "พระราม 9 ใหม่", "signal_code": "229", "n_corridors": 1, "corridors": "พระราม 9", "note": null}, "geometry": {"type": "Point", "coordinates": [100.59919, 13.74951]}}, {"type": "Feature", "properties": {"name": "พระราม 9-ประดิษฐ์มนูธรรม", "signal_code": "408", "n_corridors": 1, "corridors": "พระราม 9", "note": null}, "geometry": {"type": "Point", "coordinates": [100.59333, 13.75146]}}, {"type": "Feature", "properties": {"name": "ศูนย์วิจัยเหนือ", "signal_code": "280", "n_corridors": 1, "corridors": "พระราม 9", "note": "พระราม 9 ซอย 13"}, "geometry": {"type": "Point", "coordinates": [100.58896, 13.7529]}}, {"type": "Feature", "properties": {"name": "ผังเมือง", "signal_code": "268", "n_corridors": 1, "corridors": "พระราม 9", "note": null}, "geometry": {"type": "Point", "coordinates": [100.57336, 13.75544]}}, {"type": "Feature", "properties": {"name": "อ.ส.ม.ท.", "signal_code": "708", "n_corridors": 1, "corridors": "พระราม 9", "note": null}, "geometry": {"type": "Point", "coordinates": [100.56977, 13.75571]}}, {"type": "Feature", "properties": {"name": "พระราม 9", "signal_code": "194", "n_corridors": 3, "corridors": "พระราม 9, รัชดาภิเษก, อโศกดินแดง", "note": null}, "geometry": {"type": "Point", "coordinates": [100.56498, 13.75606]}}, {"type": "Feature", "properties": {"name": "เพลินจิต", "signal_code": "020", "n_corridors": 2, "corridors": "พระรามที่ 1, สุขุมวิท", "note": null}, "geometry": {"type": "Point", "coordinates": [100.54756, 13.74333]}}, {"type": "Feature", "properties": {"name": "ชิดลม", "signal_code": "042", "n_corridors": 1, "corridors": "พระรามที่ 1", "note": null}, "geometry": {"type": "Point", "coordinates": [100.54386, 13.74397]}}, {"type": "Feature", "properties": {"name": "ราชประสงค์", "signal_code": "003", "n_corridors": 2, "corridors": "พระรามที่ 1, ราชดำริ", "note": null}, "geometry": {"type": "Point", "coordinates": [100.54024, 13.74453]}}, {"type": "Feature", "properties": {"name": "เฉลิมเผ่า", "signal_code": "041", "n_corridors": 1, "corridors": "พระรามที่ 1", "note": null}, "geometry": {"type": "Point", "coordinates": [100.53588, 13.74528]}}, {"type": "Feature", "properties": {"name": "เจริญผล", "signal_code": "082", "n_corridors": 1, "corridors": "พระรามที่ 1", "note": null}, "geometry": {"type": "Point", "coordinates": [100.52375, 13.74742]}}, {"type": "Feature", "properties": {"name": "พงษ์พระราม", "signal_code": "184", "n_corridors": 1, "corridors": "พระรามที่ 1", "note": null}, "geometry": {"type": "Point", "coordinates": [100.52073, 13.74796]}}, {"type": "Feature", "properties": {"name": "กษัตริย์ศึก", "signal_code": "002", "n_corridors": 1, "corridors": "พระรามที่ 1", "note": null}, "geometry": {"type": "Point", "coordinates": [100.51673, 13.74908]}}, {"type": "Feature", "properties": {"name": "ต่างระดับดาวคะนอง", "signal_code": null, "n_corridors": 1, "corridors": "พระรามที่ 2", "note": null}, "geometry": {"type": "Point", "coordinates": [100.47603, 13.68129]}}, {"type": "Feature", "properties": {"name": "หัวกระบือ", "signal_code": null, "n_corridors": 1, "corridors": "พระรามที่ 2", "note": null}, "geometry": {"type": "Point", "coordinates": [100.4302, 13.65706]}}, {"type": "Feature", "properties": {"name": "ต่างระดับบางขุนเทียน", "signal_code": null, "n_corridors": 1, "corridors": "พระรามที่ 2", "note": null}, "geometry": {"type": "Point", "coordinates": [100.41062, 13.6424]}}, {"type": "Feature", "properties": {"name": "ณ ระนอง", "signal_code": "199", "n_corridors": 1, "corridors": "พระรามที่ 3", "note": null}, "geometry": {"type": "Point", "coordinates": [100.55814, 13.71771]}}, {"type": "Feature", "properties": {"name": "นางลิ้นจี่", "signal_code": "166", "n_corridors": 1, "corridors": "พระรามที่ 3", "note": null}, "geometry": {"type": "Point", "coordinates": [100.54565, 13.70232]}}, {"type": "Feature", "properties": {"name": "พระรามที่ 3-สะพานภูมิพล 1 และ สะพานภูมิพล 2", "signal_code": "414", "n_corridors": 1, "corridors": "พระรามที่ 3", "note": null}, "geometry": {"type": "Point", "coordinates": [100.54786, 13.68574]}}, {"type": "Feature", "properties": {"name": "ยานนาวา", "signal_code": "413", "n_corridors": 1, "corridors": "พระรามที่ 3", "note": null}, "geometry": {"type": "Point", "coordinates": [100.54711, 13.67908]}}, {"type": "Feature", "properties": {"name": "สาธุประดิษฐ์", "signal_code": "167", "n_corridors": 1, "corridors": "พระรามที่ 3", "note": null}, "geometry": {"type": "Point", "coordinates": [100.52909, 13.67906]}}, {"type": "Feature", "properties": {"name": "พระรามที่ 3-รัชดา", "signal_code": "239", "n_corridors": 1, "corridors": "พระรามที่ 3", "note": null}, "geometry": {"type": "Point", "coordinates": [100.52034, 13.68586]}}, {"type": "Feature", "properties": {"name": "เจริญราษฎร์", "signal_code": "406", "n_corridors": 1, "corridors": "พระรามที่ 3", "note": null}, "geometry": {"type": "Point", "coordinates": [100.50939, 13.68962]}}, {"type": "Feature", "properties": {"name": "หัวลำโพง", "signal_code": "008", "n_corridors": 1, "corridors": "พระรามที่ 4", "note": null}, "geometry": {"type": "Point", "coordinates": [100.51631, 13.73785]}}, {"type": "Feature", "properties": {"name": "มหานคร", "signal_code": "185", "n_corridors": 1, "corridors": "พระรามที่ 4", "note": null}, "geometry": {"type": "Point", "coordinates": [100.51915, 13.73673]}}, {"type": "Feature", "properties": {"name": "สะพานเหลือง", "signal_code": "087", "n_corridors": 1, "corridors": "พระรามที่ 4", "note": null}, "geometry": {"type": "Point", "coordinates": [100.52158, 13.73574]}}, {"type": "Feature", "properties": {"name": "อังรีดูนังต์", "signal_code": "063", "n_corridors": 1, "corridors": "พระรามที่ 4", "note": null}, "geometry": {"type": "Point", "coordinates": [100.53364, 13.73078]}}, {"type": "Feature", "properties": {"name": "ศาลาแดง", "signal_code": "051", "n_corridors": 3, "corridors": "พระรามที่ 4, ราชดำริ, สีลม", "note": null}, "geometry": {"type": "Point", "coordinates": [100.53666, 13.72951]}}, {"type": "Feature", "properties": {"name": "วิทยุ", "signal_code": "103", "n_corridors": 2, "corridors": "พระรามที่ 4, สาทร", "note": null}, "geometry": {"type": "Point", "coordinates": [100.54445, 13.72629]}}, {"type": "Feature", "properties": {"name": "ใต้ด่วนพระรามที่ 4", "signal_code": "142", "n_corridors": 1, "corridors": "พระรามที่ 4", "note": null}, "geometry": {"type": "Point", "coordinates": [100.55265, 13.72287]}}, {"type": "Feature", "properties": {"name": "คลองเตย", "signal_code": "118", "n_corridors": 1, "corridors": "พระรามที่ 4", "note": null}, "geometry": {"type": "Point", "coordinates": [100.55761, 13.72081]}}, {"type": "Feature", "properties": {"name": "พระรามที่ 4", "signal_code": "123", "n_corridors": 1, "corridors": "พระรามที่ 4", "note": null}, "geometry": {"type": "Point", "coordinates": [100.55907, 13.72023]}}, {"type": "Feature", "properties": {"name": "เกษมราษฎร์", "signal_code": "095", "n_corridors": 1, "corridors": "พระรามที่ 4", "note": null}, "geometry": {"type": "Point", "coordinates": [100.56716, 13.71892]}}, {"type": "Feature", "properties": {"name": "มหาวิทยาลัยกรุงเทพ", "signal_code": "294", "n_corridors": 1, "corridors": "พระรามที่ 4", "note": null}, "geometry": {"type": "Point", "coordinates": [100.58056, 13.71322]}}, {"type": "Feature", "properties": {"name": "กล้วยน้ำไท", "signal_code": "068", "n_corridors": 1, "corridors": "พระรามที่ 4", "note": null}, "geometry": {"type": "Point", "coordinates": [100.58403, 13.71292]}}, {"type": "Feature", "properties": {"name": "พระโขนง", "signal_code": "005", "n_corridors": 2, "corridors": "พระรามที่ 4, สุขุมวิท", "note": null}, "geometry": {"type": "Point", "coordinates": [100.59253, 13.71427]}}, {"type": "Feature", "properties": {"name": "สะพานแดง", "signal_code": "006", "n_corridors": 1, "corridors": "พระรามที่ 5", "note": null}, "geometry": {"type": "Point", "coordinates": [100.52995, 13.79346]}}, {"type": "Feature", "properties": {"name": "วัดประชา", "signal_code": "349", "n_corridors": 1, "corridors": "พระรามที่ 5", "note": null}, "geometry": {"type": "Point", "coordinates": [100.52765, 13.78925]}}, {"type": "Feature", "properties": {"name": "เกษะโกมล", "signal_code": "086", "n_corridors": 1, "corridors": "พระรามที่ 5", "note": null}, "geometry": {"type": "Point", "coordinates": [100.52441, 13.78333]}}, {"type": "Feature", "properties": {"name": "ราชวัตร", "signal_code": "028", "n_corridors": 1, "corridors": "พระรามที่ 5", "note": null}, "geometry": {"type": "Point", "coordinates": [100.52233, 13.7795]}}, {"type": "Feature", "properties": {"name": "สุโขทัย", "signal_code": "100", "n_corridors": 1, "corridors": "พระรามที่ 5", "note": null}, "geometry": {"type": "Point", "coordinates": [100.52071, 13.77655]}}, {"type": "Feature", "properties": {"name": "ราชวิถี", "signal_code": "069", "n_corridors": 2, "corridors": "พระรามที่ 5, ราชวิถี", "note": null}, "geometry": {"type": "Point", "coordinates": [100.51908, 13.77358]}}, {"type": "Feature", "properties": {"name": "วัดเบญจฯ", "signal_code": "015", "n_corridors": 2, "corridors": "พระรามที่ 5, ศรีอยุธยา", "note": null}, "geometry": {"type": "Point", "coordinates": [100.51525, 13.76652]}}, {"type": "Feature", "properties": {"name": "พาณิชยการ", "signal_code": "101", "n_corridors": 2, "corridors": "พระรามที่ 5, พิษณุโลก", "note": null}, "geometry": {"type": "Point", "coordinates": [100.51349, 13.76331]}}, {"type": "Feature", "properties": {"name": "สะพานดำ", "signal_code": "265", "n_corridors": 1, "corridors": "พระรามที่ 6", "note": null}, "geometry": {"type": "Point", "coordinates": [100.53832, 13.79691]}}, {"type": "Feature", "properties": {"name": "ประดิพัทธ์", "signal_code": "133", "n_corridors": 1, "corridors": "พระรามที่ 6", "note": null}, "geometry": {"type": "Point", "coordinates": [100.53789, 13.79188]}}, {"type": "Feature", "properties": {"name": "พิบูลย์วัฒนา", "signal_code": "155", "n_corridors": 1, "corridors": "พระรามที่ 6", "note": null}, "geometry": {"type": "Point", "coordinates": [100.53552, 13.78609]}}, {"type": "Feature", "properties": {"name": "เศรษฐศิริ 2", "signal_code": null, "n_corridors": 1, "corridors": "พระรามที่ 6", "note": null}, "geometry": {"type": "Point", "coordinates": [100.534093, 13.782652]}}, {"type": "Feature", "properties": {"name": "อารีย์สัมพันธ์", "signal_code": "125", "n_corridors": 1, "corridors": "พระรามที่ 6", "note": null}, "geometry": {"type": "Point", "coordinates": [100.53375, 13.78167]}}, {"type": "Feature", "properties": {"name": "โรงพยาบาลวิชัยยุทธ", "signal_code": "126", "n_corridors": 1, "corridors": "พระรามที่ 6", "note": null}, "geometry": {"type": "Point", "coordinates": [100.53309, 13.78003]}}, {"type": "Feature", "properties": {"name": "พระรามที่ 6 ซอย 28", "signal_code": "344", "n_corridors": 1, "corridors": "พระรามที่ 6", "note": null}, "geometry": {"type": "Point", "coordinates": [100.53171, 13.77664]}}, {"type": "Feature", "properties": {"name": "โรงกรองน้ำ", "signal_code": "045", "n_corridors": 1, "corridors": "พระรามที่ 6", "note": null}, "geometry": {"type": "Point", "coordinates": [100.53106, 13.77505]}}, {"type": "Feature", "properties": {"name": "ตึกชัย", "signal_code": "039", "n_corridors": 2, "corridors": "พระรามที่ 6, ราชวิถี", "note": null}, "geometry": {"type": "Point", "coordinates": [100.52876, 13.76923]}}, {"type": "Feature", "properties": {"name": "ศรีอยุธยา", "signal_code": "109", "n_corridors": 2, "corridors": "พระรามที่ 6, ศรีอยุธยา", "note": null}, "geometry": {"type": "Point", "coordinates": [100.52571, 13.76181]}}, {"type": "Feature", "properties": {"name": "อุรุพงษ์", "signal_code": "001", "n_corridors": 2, "corridors": "พระรามที่ 6, เพชรบุรี", "note": null}, "geometry": {"type": "Point", "coordinates": [100.52348, 13.75614]}}, {"type": "Feature", "properties": {"name": "โรงเรียนนายเรืออากาศ", "signal_code": "464", "n_corridors": 1, "corridors": "พหลโยธิน (ส่วนปลาย)", "note": "แยก คปอ."}, "geometry": {"type": "Point", "coordinates": [100.62501, 13.92357]}}, {"type": "Feature", "properties": {"name": "โรงเรียนฤทธิยะวรรณาลัย", "signal_code": "463", "n_corridors": 1, "corridors": "พหลโยธิน (ส่วนปลาย)", "note": null}, "geometry": {"type": "Point", "coordinates": [100.62044, 13.91567]}}, {"type": "Feature", "properties": {"name": "โรงพยาบาลภูมิพลฯ", "signal_code": "462", "n_corridors": 1, "corridors": "พหลโยธิน (ส่วนปลาย)", "note": null}, "geometry": {"type": "Point", "coordinates": [100.61629, 13.90879]}}, {"type": "Feature", "properties": {"name": "พลาธิการ ทอ.", "signal_code": "461", "n_corridors": 1, "corridors": "พหลโยธิน (ส่วนปลาย)", "note": null}, "geometry": {"type": "Point", "coordinates": [100.6122, 13.90186]}}, {"type": "Feature", "properties": {"name": "สะพานใหม่", "signal_code": "345", "n_corridors": 1, "corridors": "พหลโยธิน (ส่วนปลาย)", "note": null}, "geometry": {"type": "Point", "coordinates": [100.60541, 13.89036]}}, {"type": "Feature", "properties": {"name": "สายหยุด", "signal_code": "450", "n_corridors": 1, "corridors": "พหลโยธิน (ส่วนปลาย)", "note": null}, "geometry": {"type": "Point", "coordinates": [100.60295, 13.88621]}}, {"type": "Feature", "properties": {"name": "เสนานิคม", "signal_code": "201", "n_corridors": 1, "corridors": "พหลโยธิน (ส่วนต้น)", "note": null}, "geometry": {"type": "Point", "coordinates": [100.57219, 13.83393]}}, {"type": "Feature", "properties": {"name": "รัชโยธิน", "signal_code": "180", "n_corridors": 2, "corridors": "พหลโยธิน (ส่วนต้น), รัชดาภิเษก", "note": null}, "geometry": {"type": "Point", "coordinates": [100.56811, 13.82704]}}, {"type": "Feature", "properties": {"name": "ลาดพร้าว", "signal_code": "343", "n_corridors": 3, "corridors": "พหลโยธิน (ส่วนต้น), ลาดพร้าว, วิภาวดีรังสิต", "note": null}, "geometry": {"type": "Point", "coordinates": [100.55992, 13.81313]}}, {"type": "Feature", "properties": {"name": "กำแพงเพชร", "signal_code": "090", "n_corridors": 1, "corridors": "พหลโยธิน (ส่วนต้น)", "note": null}, "geometry": {"type": "Point", "coordinates": [100.55111, 13.79794]}}, {"type": "Feature", "properties": {"name": "สะพานควาย", "signal_code": "038", "n_corridors": 1, "corridors": "พหลโยธิน (ส่วนต้น)", "note": null}, "geometry": {"type": "Point", "coordinates": [100.54828, 13.78977]}}, {"type": "Feature", "properties": {"name": "ราชครู", "signal_code": null, "n_corridors": 1, "corridors": "พหลโยธิน (ส่วนต้น)", "note": null}, "geometry": {"type": "Point", "coordinates": [100.54363, 13.7769]}}, {"type": "Feature", "properties": {"name": "เฉลิมพระเกียรติ ร.9-พัฒนาการ", "signal_code": "339", "n_corridors": 1, "corridors": "พัฒนาการ", "note": null}, "geometry": {"type": "Point", "coordinates": [100.67554, 13.70007]}}, {"type": "Feature", "properties": {"name": "ต่างระดับอ่อนนุช-พัฒนาการ", "signal_code": null, "n_corridors": 1, "corridors": "พัฒนาการ", "note": null}, "geometry": {"type": "Point", "coordinates": [100.66052, 13.71762]}}, {"type": "Feature", "properties": {"name": "เมืองทอง 2", "signal_code": "721", "n_corridors": 1, "corridors": "พัฒนาการ", "note": "แยกพัฒนาการ 74"}, "geometry": {"type": "Point", "coordinates": [100.6564, 13.72824]}}, {"type": "Feature", "properties": {"name": "พัฒนาการ 53", "signal_code": "333", "n_corridors": 1, "corridors": "พัฒนาการ", "note": null}, "geometry": {"type": "Point", "coordinates": [100.64898, 13.73245]}}, {"type": "Feature", "properties": {"name": "พัฒนาการ", "signal_code": "203", "n_corridors": 2, "corridors": "พัฒนาการ, ศรีนครินทร์", "note": null}, "geometry": {"type": "Point", "coordinates": [100.6408, 13.73592]}}, {"type": "Feature", "properties": {"name": "พัฒนาการ 25", "signal_code": "407", "n_corridors": 1, "corridors": "พัฒนาการ", "note": null}, "geometry": {"type": "Point", "coordinates": [100.61637, 13.73642]}}, {"type": "Feature", "properties": {"name": "ใต้ด่วนพัฒนาการ", "signal_code": "410", "n_corridors": 1, "corridors": "พัฒนาการ", "note": null}, "geometry": {"type": "Point", "coordinates": [100.60449, 13.73934]}}, {"type": "Feature", "properties": {"name": "คลองตัน", "signal_code": "113", "n_corridors": 3, "corridors": "พัฒนาการ, รามคำแหง (ส่วนต้น), เพชรบุรี", "note": null}, "geometry": {"type": "Point", "coordinates": [100.60078, 13.74099]}}, {"type": "Feature", "properties": {"name": "ยมราช", "signal_code": "040", "n_corridors": 4, "corridors": "พิษณุโลก, สวรรคโลก, หลานหลวง, เพชรบุรี", "note": null}, "geometry": {"type": "Point", "coordinates": [100.52054, 13.75728]}}, {"type": "Feature", "properties": {"name": "นางเลิ้ง", "signal_code": "034", "n_corridors": 1, "corridors": "พิษณุโลก", "note": null}, "geometry": {"type": "Point", "coordinates": [100.51542, 13.76167]}}, {"type": "Feature", "properties": {"name": "สวนมิสกวัน", "signal_code": "076", "n_corridors": 2, "corridors": "พิษณุโลก, ราชดำเนิน", "note": null}, "geometry": {"type": "Point", "coordinates": [100.51044, 13.76589]}}, {"type": "Feature", "properties": {"name": "พิษณุโลก-สามเสน", "signal_code": null, "n_corridors": 1, "corridors": "พิษณุโลก", "note": null}, "geometry": {"type": "Point", "coordinates": [100.50478, 13.77089]}}, {"type": "Feature", "properties": {"name": "เอกมัยเหนือ (1)", "signal_code": "432-433", "n_corridors": 1, "corridors": "เพชรบุรี", "note": null}, "geometry": {"type": "Point", "coordinates": [100.58972, 13.74357]}}, {"type": "Feature", "properties": {"name": "ทองหล่อเหนือ", "signal_code": "290", "n_corridors": 1, "corridors": "เพชรบุรี", "note": null}, "geometry": {"type": "Point", "coordinates": [100.5861, 13.74437]}}, {"type": "Feature", "properties": {"name": "ศูนย์วิจัยใต้", "signal_code": "169", "n_corridors": 1, "corridors": "เพชรบุรี", "note": null}, "geometry": {"type": "Point", "coordinates": [100.58473, 13.74473]}}, {"type": "Feature", "properties": {"name": "พร้อมพงษ์", "signal_code": "251", "n_corridors": 1, "corridors": "เพชรบุรี", "note": null}, "geometry": {"type": "Point", "coordinates": [100.57333, 13.74731]}}, {"type": "Feature", "properties": {"name": "อโศก-เพชรบุรี", "signal_code": "134", "n_corridors": 1, "corridors": "เพชรบุรี", "note": null}, "geometry": {"type": "Point", "coordinates": [100.56339, 13.74894]}}, {"type": "Feature", "properties": {"name": "มิตรสัมพันธ์", "signal_code": "106", "n_corridors": 1, "corridors": "เพชรบุรี", "note": null}, "geometry": {"type": "Point", "coordinates": [100.55447, 13.75004]}}, {"type": "Feature", "properties": {"name": "ทางด่วนเพชรบุรี", "signal_code": null, "n_corridors": 1, "corridors": "เพชรบุรี", "note": null}, "geometry": {"type": "Point", "coordinates": [100.54966, 13.75001]}}, {"type": "Feature", "properties": {"name": "วิทยุ-เพชรบุรี", "signal_code": "099", "n_corridors": 1, "corridors": "เพชรบุรี", "note": null}, "geometry": {"type": "Point", "coordinates": [100.5486, 13.74966]}}, {"type": "Feature", "properties": {"name": "ชิดลม-เพชรบุรี", "signal_code": "236", "n_corridors": 1, "corridors": "เพชรบุรี", "note": null}, "geometry": {"type": "Point", "coordinates": [100.54483, 13.74944]}}, {"type": "Feature", "properties": {"name": "ประตูน้ำ", "signal_code": "022", "n_corridors": 2, "corridors": "ราชดำริ, เพชรบุรี", "note": null}, "geometry": {"type": "Point", "coordinates": [100.54109, 13.74996]}}, {"type": "Feature", "properties": {"name": "เพชรพระราม", "signal_code": "067", "n_corridors": 1, "corridors": "เพชรบุรี", "note": null}, "geometry": {"type": "Point", "coordinates": [100.52689, 13.75497]}}, {"type": "Feature", "properties": {"name": "เมอร์รี่คิงส์", "signal_code": "036", "n_corridors": 1, "corridors": "เยาวราช", "note": null}, "geometry": {"type": "Point", "coordinates": [100.50262, 13.74504]}}, {"type": "Feature", "properties": {"name": "วัดตึก", "signal_code": "050", "n_corridors": 1, "corridors": "เยาวราช", "note": null}, "geometry": {"type": "Point", "coordinates": [100.50446, 13.74416]}}, {"type": "Feature", "properties": {"name": "ราชวงศ์", "signal_code": "049", "n_corridors": 1, "corridors": "เยาวราช", "note": null}, "geometry": {"type": "Point", "coordinates": [100.50698, 13.74236]}}, {"type": "Feature", "properties": {"name": "เฉลิมบุรี", "signal_code": "047", "n_corridors": 1, "corridors": "เยาวราช", "note": null}, "geometry": {"type": "Point", "coordinates": [100.51146, 13.73944]}}, {"type": "Feature", "properties": {"name": "วงเวียนโอเดียน", "signal_code": null, "n_corridors": 1, "corridors": "เยาวราช", "note": null}, "geometry": {"type": "Point", "coordinates": [100.51225, 13.73697]}}, {"type": "Feature", "properties": {"name": "วงศ์สว่าง", "signal_code": "157", "n_corridors": 1, "corridors": "รัชดาภิเษก", "note": null}, "geometry": {"type": "Point", "coordinates": [100.52846, 13.8283]}}, {"type": "Feature", "properties": {"name": "ประชานุกูล", "signal_code": "156", "n_corridors": 1, "corridors": "รัชดาภิเษก", "note": null}, "geometry": {"type": "Point", "coordinates": [100.53899, 13.83045]}}, {"type": "Feature", "properties": {"name": "ด่วนรัชดาภิเษก", "signal_code": "459", "n_corridors": 1, "corridors": "รัชดาภิเษก", "note": null}, "geometry": {"type": "Point", "coordinates": [100.54124, 13.83006]}}, {"type": "Feature", "properties": {"name": "ต่างระดับรัชวิภา", "signal_code": null, "n_corridors": 2, "corridors": "รัชดาภิเษก, วิภาวดีรังสิต", "note": null}, "geometry": {"type": "Point", "coordinates": [100.55759, 13.83064]}}, {"type": "Feature", "properties": {"name": "รัชดา-ลาดพร้าว", "signal_code": "179", "n_corridors": 2, "corridors": "รัชดาภิเษก, ลาดพร้าว", "note": null}, "geometry": {"type": "Point", "coordinates": [100.57496, 13.80531]}}, {"type": "Feature", "properties": {"name": "รัชดา-สุทธิสาร", "signal_code": "207", "n_corridors": 1, "corridors": "รัชดาภิเษก", "note": null}, "geometry": {"type": "Point", "coordinates": [100.57422, 13.78973]}}, {"type": "Feature", "properties": {"name": "ห้วยขวาง", "signal_code": "206", "n_corridors": 1, "corridors": "รัชดาภิเษก", "note": null}, "geometry": {"type": "Point", "coordinates": [100.57363, 13.77845]}}, {"type": "Feature", "properties": {"name": "เทียมร่วมมิตร", "signal_code": "286", "n_corridors": 1, "corridors": "รัชดาภิเษก", "note": null}, "geometry": {"type": "Point", "coordinates": [100.57279, 13.76964]}}, {"type": "Feature", "properties": {"name": "ป้อมเผด็จ", "signal_code": "144", "n_corridors": 1, "corridors": "ราชดำเนิน", "note": null}, "geometry": {"type": "Point", "coordinates": [100.49357, 13.75245]}}, {"type": "Feature", "properties": {"name": "ผ่านพิภพลีลา", "signal_code": "013", "n_corridors": 1, "corridors": "ราชดำเนิน", "note": null}, "geometry": {"type": "Point", "coordinates": [100.49479, 13.75703]}}, {"type": "Feature", "properties": {"name": "คอกวัว", "signal_code": "079", "n_corridors": 1, "corridors": "ราชดำเนิน", "note": null}, "geometry": {"type": "Point", "coordinates": [100.49894, 13.75726]}}, {"type": "Feature", "properties": {"name": "วงเวียนอนุสาวรีย์ประชาธิปไตย", "signal_code": "227", "n_corridors": 1, "corridors": "ราชดำเนิน", "note": null}, "geometry": {"type": "Point", "coordinates": [100.50176, 13.75633]}}, {"type": "Feature", "properties": {"name": "ป้อมมหากาฬ", "signal_code": "009", "n_corridors": 1, "corridors": "ราชดำเนิน", "note": null}, "geometry": {"type": "Point", "coordinates": [100.50515, 13.75602]}}, {"type": "Feature", "properties": {"name": "ผ่านฟ้าลีลาศ", "signal_code": "010", "n_corridors": 2, "corridors": "ราชดำเนิน, หลานหลวง", "note": null}, "geometry": {"type": "Point", "coordinates": [100.5059, 13.75633]}}, {"type": "Feature", "properties": {"name": "จปร.", "signal_code": "012", "n_corridors": 1, "corridors": "ราชดำเนิน", "note": null}, "geometry": {"type": "Point", "coordinates": [100.50768, 13.75997]}}, {"type": "Feature", "properties": {"name": "มัฆวาน", "signal_code": "011", "n_corridors": 1, "corridors": "ราชดำเนิน", "note": null}, "geometry": {"type": "Point", "coordinates": [100.50928, 13.76339]}}, {"type": "Feature", "properties": {"name": "ลานพระรูป", "signal_code": "139", "n_corridors": 2, "corridors": "ราชดำเนิน, ศรีอยุธยา", "note": null}, "geometry": {"type": "Point", "coordinates": [100.51154, 13.76822]}}, {"type": "Feature", "properties": {"name": "ราชดำริ", "signal_code": "196", "n_corridors": 1, "corridors": "ราชดำริ", "note": null}, "geometry": {"type": "Point", "coordinates": [100.53854, 13.73439]}}, {"type": "Feature", "properties": {"name": "ราชวิถี-ถนนขาว", "signal_code": null, "n_corridors": 1, "corridors": "ราชวิถี", "note": null}, "geometry": {"type": "Point", "coordinates": [100.50566, 13.77963]}}, {"type": "Feature", "properties": {"name": "ซังฮี้", "signal_code": "017", "n_corridors": 2, "corridors": "ราชวิถี, สามเสน", "note": null}, "geometry": {"type": "Point", "coordinates": [100.50844, 13.77837]}}, {"type": "Feature", "properties": {"name": "อู่ทองใน", "signal_code": "021", "n_corridors": 1, "corridors": "ราชวิถี", "note": null}, "geometry": {"type": "Point", "coordinates": [100.5155, 13.77518]}}, {"type": "Feature", "properties": {"name": "อุภัยเจษฎุทิศ", "signal_code": "054", "n_corridors": 2, "corridors": "ราชวิถี, สวรรคโลก", "note": null}, "geometry": {"type": "Point", "coordinates": [100.52593, 13.77047]}}, {"type": "Feature", "properties": {"name": "รามคำแหง-สุวินทวงศ์", "signal_code": "471", "n_corridors": 1, "corridors": "รามคำแหง (ส่วนปลาย)", "note": null}, "geometry": {"type": "Point", "coordinates": [100.74466, 13.81665]}}, {"type": "Feature", "properties": {"name": "รามคำแหง-ร่มเกล้า", "signal_code": "477", "n_corridors": 1, "corridors": "รามคำแหง (ส่วนปลาย)", "note": null}, "geometry": {"type": "Point", "coordinates": [100.73682, 13.81238]}}, {"type": "Feature", "properties": {"name": "ลาดบัวขาว", "signal_code": "437", "n_corridors": 1, "corridors": "รามคำแหง (ส่วนปลาย)", "note": null}, "geometry": {"type": "Point", "coordinates": [100.71551, 13.79958]}}, {"type": "Feature", "properties": {"name": "มิสทิน", "signal_code": "395", "n_corridors": 1, "corridors": "รามคำแหง (ส่วนปลาย)", "note": null}, "geometry": {"type": "Point", "coordinates": [100.70206, 13.79271]}}, {"type": "Feature", "properties": {"name": "ต่างระดับสุขาภิบาล 3 (ตะวันออก)", "signal_code": "467", "n_corridors": 1, "corridors": "รามคำแหง (ส่วนปลาย)", "note": null}, "geometry": {"type": "Point", "coordinates": [100.68698, 13.78438]}}, {"type": "Feature", "properties": {"name": "ต่างระดับสุขาภิบาล 3 (ตะวันตก)", "signal_code": "468", "n_corridors": 1, "corridors": "รามคำแหง (ส่วนปลาย)", "note": null}, "geometry": {"type": "Point", "coordinates": [100.68281, 13.7821]}}, {"type": "Feature", "properties": {"name": "บ้านม้า", "signal_code": "435", "n_corridors": 2, "corridors": "รามคำแหง (ส่วนปลาย), ศรีบูรพา", "note": null}, "geometry": {"type": "Point", "coordinates": [100.65772, 13.76756]}}, {"type": "Feature", "properties": {"name": "สุภาพงษ์", "signal_code": "396", "n_corridors": 1, "corridors": "รามคำแหง (ส่วนปลาย)", "note": null}, "geometry": {"type": "Point", "coordinates": [100.65569, 13.76634]}}, {"type": "Feature", "properties": {"name": "สวนสน", "signal_code": "248", "n_corridors": 2, "corridors": "รามคำแหง (ส่วนต้น), รามคำแหง (ส่วนปลาย)", "note": null}, "geometry": {"type": "Point", "coordinates": [100.64874, 13.76308]}}, {"type": "Feature", "properties": {"name": "ลำสาลี", "signal_code": "182", "n_corridors": 2, "corridors": "รามคำแหง (ส่วนต้น), ศรีนครินทร์", "note": null}, "geometry": {"type": "Point", "coordinates": [100.64562, 13.76272]}}, {"type": "Feature", "properties": {"name": "รามคำแหง 26", "signal_code": "441", "n_corridors": 1, "corridors": "รามคำแหง (ส่วนต้น)", "note": null}, "geometry": {"type": "Point", "coordinates": [100.62973, 13.76092]}}, {"type": "Feature", "properties": {"name": "มหาดไทย", "signal_code": "209", "n_corridors": 1, "corridors": "รามคำแหง (ส่วนต้น)", "note": null}, "geometry": {"type": "Point", "coordinates": [100.6245, 13.76034]}}, {"type": "Feature", "properties": {"name": "วัดเทพลีลา", "signal_code": "338", "n_corridors": 1, "corridors": "รามคำแหง (ส่วนต้น)", "note": null}, "geometry": {"type": "Point", "coordinates": [100.61575, 13.75758]}}, {"type": "Feature", "properties": {"name": "หมู่บ้านเสรี", "signal_code": "208", "n_corridors": 1, "corridors": "รามคำแหง (ส่วนต้น)", "note": null}, "geometry": {"type": "Point", "coordinates": [100.61354, 13.75539]}}, {"type": "Feature", "properties": {"name": "เมืองมีน", "signal_code": "476", "n_corridors": 2, "corridors": "รามอินทรา, เสรีไทย", "note": null}, "geometry": {"type": "Point", "coordinates": [100.7176, 13.81268]}}, {"type": "Feature", "properties": {"name": "โรงพยาบาลนพรัตน์ฯ", "signal_code": "475", "n_corridors": 1, "corridors": "รามอินทรา", "note": null}, "geometry": {"type": "Point", "coordinates": [100.68765, 13.81461]}}, {"type": "Feature", "properties": {"name": "ต่างระดับรามอินทรา", "signal_code": null, "n_corridors": 1, "corridors": "รามอินทรา", "note": null}, "geometry": {"type": "Point", "coordinates": [100.67406, 13.82737]}}, {"type": "Feature", "properties": {"name": "นวลจันทร์", "signal_code": "365", "n_corridors": 1, "corridors": "รามอินทรา", "note": null}, "geometry": {"type": "Point", "coordinates": [100.64962, 13.84558]}}, {"type": "Feature", "properties": {"name": "มัยลาภ", "signal_code": "483", "n_corridors": 1, "corridors": "รามอินทรา", "note": null}, "geometry": {"type": "Point", "coordinates": [100.63141, 13.85541]}}, {"type": "Feature", "properties": {"name": "ลาดปลาเค้า", "signal_code": "363", "n_corridors": 1, "corridors": "รามอินทรา", "note": null}, "geometry": {"type": "Point", "coordinates": [100.61468, 13.8644]}}, {"type": "Feature", "properties": {"name": "สามแยกบางกะปิ", "signal_code": "158", "n_corridors": 2, "corridors": "ลาดพร้าว, ศรีนครินทร์", "note": null}, "geometry": {"type": "Point", "coordinates": [100.64536, 13.76606]}}, {"type": "Feature", "properties": {"name": "แฮปปี้แลนด์", "signal_code": "192", "n_corridors": 1, "corridors": "ลาดพร้าว", "note": null}, "geometry": {"type": "Point", "coordinates": [100.64196, 13.76785]}}, {"type": "Feature", "properties": {"name": "ลาดพร้าว 101", "signal_code": "278", "n_corridors": 1, "corridors": "ลาดพร้าว", "note": null}, "geometry": {"type": "Point", "coordinates": [100.62913, 13.77503]}}, {"type": "Feature", "properties": {"name": "มหาดไทย-ลาดพร้าว", "signal_code": "249", "n_corridors": 1, "corridors": "ลาดพร้าว", "note": null}, "geometry": {"type": "Point", "coordinates": [100.62427, 13.77776]}}, {"type": "Feature", "properties": {"name": "ลาดพร้าว 112", "signal_code": "373", "n_corridors": 1, "corridors": "ลาดพร้าว", "note": null}, "geometry": {"type": "Point", "coordinates": [100.6182, 13.78115]}}, {"type": "Feature", "properties": {"name": "จันทิมา", "signal_code": "247", "n_corridors": 1, "corridors": "ลาดพร้าว", "note": null}, "geometry": {"type": "Point", "coordinates": [100.60516, 13.78844]}}, {"type": "Feature", "properties": {"name": "เกตุนุติ", "signal_code": "371", "n_corridors": 1, "corridors": "ลาดพร้าว", "note": null}, "geometry": {"type": "Point", "coordinates": [100.59976, 13.79145]}}, {"type": "Feature", "properties": {"name": "โชคชัย 4", "signal_code": "246", "n_corridors": 1, "corridors": "ลาดพร้าว", "note": null}, "geometry": {"type": "Point", "coordinates": [100.59376, 13.79482]}}, {"type": "Feature", "properties": {"name": "ภาวนา", "signal_code": "231", "n_corridors": 1, "corridors": "ลาดพร้าว", "note": null}, "geometry": {"type": "Point", "coordinates": [100.5833, 13.80068]}}, {"type": "Feature", "properties": {"name": "สุทธิสาร", "signal_code": "368", "n_corridors": 1, "corridors": "วิภาวดีรังสิต", "note": null}, "geometry": {"type": "Point", "coordinates": [100.56153, 13.78933]}}, {"type": "Feature", "properties": {"name": "ใต้ด่วนดินแดง", "signal_code": "163", "n_corridors": 2, "corridors": "วิภาวดีรังสิต, อโศกดินแดง", "note": null}, "geometry": {"type": "Point", "coordinates": [100.54808, 13.76389]}}, {"type": "Feature", "properties": {"name": "ศรีอุดม", "signal_code": "326", "n_corridors": 1, "corridors": "ศรีนครินทร์", "note": null}, "geometry": {"type": "Point", "coordinates": [100.64604, 13.67775]}}, {"type": "Feature", "properties": {"name": "พาราไดซ์พาร์ค", "signal_code": "327", "n_corridors": 1, "corridors": "ศรีนครินทร์", "note": null}, "geometry": {"type": "Point", "coordinates": [100.64671, 13.68611]}}, {"type": "Feature", "properties": {"name": "สวนหลวง", "signal_code": "204", "n_corridors": 1, "corridors": "ศรีนครินทร์", "note": null}, "geometry": {"type": "Point", "coordinates": [100.64375, 13.71275]}}, {"type": "Feature", "properties": {"name": "กรุงเทพกรีฑา", "signal_code": "285", "n_corridors": 1, "corridors": "ศรีนครินทร์", "note": null}, "geometry": {"type": "Point", "coordinates": [100.64526, 13.75191]}}, {"type": "Feature", "properties": {"name": "นิด้า", "signal_code": "211", "n_corridors": 2, "corridors": "ศรีบูรพา, เสรีไทย", "note": null}, "geometry": {"type": "Point", "coordinates": [100.65461, 13.77277]}}, {"type": "Feature", "properties": {"name": "หมอเหล็ง", "signal_code": "143", "n_corridors": 1, "corridors": "ศรีอยุธยา", "note": null}, "geometry": {"type": "Point", "coordinates": [100.5424, 13.75599]}}, {"type": "Feature", "properties": {"name": "เสาวนี", "signal_code": "035", "n_corridors": 2, "corridors": "ศรีอยุธยา, สวรรคโลก", "note": null}, "geometry": {"type": "Point", "coordinates": [100.52293, 13.76306]}}, {"type": "Feature", "properties": {"name": "สี่เสาเทเวศร์", "signal_code": "071", "n_corridors": 2, "corridors": "ศรีอยุธยา, สามเสน", "note": null}, "geometry": {"type": "Point", "coordinates": [100.50501, 13.77115]}}, {"type": "Feature", "properties": {"name": "สามเสน", "signal_code": "234", "n_corridors": 1, "corridors": "สวรรคโลก", "note": null}, "geometry": {"type": "Point", "coordinates": [100.52837, 13.77614]}}, {"type": "Feature", "properties": {"name": "สุคันธาราม", "signal_code": "233", "n_corridors": 1, "corridors": "สวรรคโลก", "note": null}, "geometry": {"type": "Point", "coordinates": [100.52746, 13.77421]}}, {"type": "Feature", "properties": {"name": "สวรรคโลก", "signal_code": "233", "n_corridors": 1, "corridors": "สวรรคโลก", "note": null}, "geometry": {"type": "Point", "coordinates": [100.52719, 13.77363]}}, {"type": "Feature", "properties": {"name": "สาทร-สุรศักดิ์", "signal_code": "215", "n_corridors": 2, "corridors": "สาทร, สุรศักดิ์", "note": null}, "geometry": {"type": "Point", "coordinates": [100.51983, 13.71883]}}, {"type": "Feature", "properties": {"name": "เกียกกาย", "signal_code": "097", "n_corridors": 1, "corridors": "สามเสน", "note": null}, "geometry": {"type": "Point", "coordinates": [100.52135, 13.79725]}}, {"type": "Feature", "properties": {"name": "บางกระบือ", "signal_code": "129", "n_corridors": 1, "corridors": "สามเสน", "note": null}, "geometry": {"type": "Point", "coordinates": [100.51463, 13.78937]}}, {"type": "Feature", "properties": {"name": "ศรีย่าน", "signal_code": "016", "n_corridors": 1, "corridors": "สามเสน", "note": null}, "geometry": {"type": "Point", "coordinates": [100.51179, 13.78536]}}, {"type": "Feature", "properties": {"name": "วชิระ", "signal_code": "065", "n_corridors": 1, "corridors": "สามเสน", "note": null}, "geometry": {"type": "Point", "coordinates": [100.50979, 13.78128]}}, {"type": "Feature", "properties": {"name": "เทเวศร์", "signal_code": "072", "n_corridors": 1, "corridors": "สามเสน", "note": null}, "geometry": {"type": "Point", "coordinates": [100.50373, 13.76962]}}, {"type": "Feature", "properties": {"name": "บางขุนพรหม", "signal_code": "059", "n_corridors": 1, "corridors": "สามเสน", "note": null}, "geometry": {"type": "Point", "coordinates": [100.50113, 13.76694]}}, {"type": "Feature", "properties": {"name": "บางลำพู", "signal_code": "058", "n_corridors": 1, "corridors": "สามเสน", "note": null}, "geometry": {"type": "Point", "coordinates": [100.49828, 13.76218]}}, {"type": "Feature", "properties": {"name": "พิพัฒน์", "signal_code": "175", "n_corridors": 1, "corridors": "สีลม", "note": null}, "geometry": {"type": "Point", "coordinates": [100.53066, 13.72723]}}, {"type": "Feature", "properties": {"name": "เดโช", "signal_code": "137", "n_corridors": 1, "corridors": "สีลม", "note": null}, "geometry": {"type": "Point", "coordinates": [100.52557, 13.72541]}}, {"type": "Feature", "properties": {"name": "สุรศักดิ์", "signal_code": "098", "n_corridors": 2, "corridors": "สีลม, สุรศักดิ์", "note": null}, "geometry": {"type": "Point", "coordinates": [100.51926, 13.72314]}}, {"type": "Feature", "properties": {"name": "ด่วนสีลม", "signal_code": "428", "n_corridors": 1, "corridors": "สีลม", "note": null}, "geometry": {"type": "Point", "coordinates": [100.51793, 13.72267]}}, {"type": "Feature", "properties": {"name": "อุดมสุข", "signal_code": "168", "n_corridors": 1, "corridors": "สุขุมวิท", "note": null}, "geometry": {"type": "Point", "coordinates": [100.60906, 13.67882]}}, {"type": "Feature", "properties": {"name": "ทุ่งสาธิต", "signal_code": "165", "n_corridors": 1, "corridors": "สุขุมวิท", "note": null}, "geometry": {"type": "Point", "coordinates": [100.61053, 13.68431]}}, {"type": "Feature", "properties": {"name": "สุขุมวิท 62", "signal_code": "132", "n_corridors": 1, "corridors": "สุขุมวิท", "note": null}, "geometry": {"type": "Point", "coordinates": [100.60585, 13.69577]}}, {"type": "Feature", "properties": {"name": "อ่อนนุช", "signal_code": "124", "n_corridors": 1, "corridors": "สุขุมวิท", "note": null}, "geometry": {"type": "Point", "coordinates": [100.59943, 13.7089]}}, {"type": "Feature", "properties": {"name": "สุขุมวิท 71", "signal_code": "005", "n_corridors": 1, "corridors": "สุขุมวิท", "note": null}, "geometry": {"type": "Point", "coordinates": [100.59416, 13.71313]}}, {"type": "Feature", "properties": {"name": "เอกมัยใต้", "signal_code": "116", "n_corridors": 1, "corridors": "สุขุมวิท", "note": null}, "geometry": {"type": "Point", "coordinates": [100.58442, 13.72005]}}, {"type": "Feature", "properties": {"name": "ทองหล่อ", "signal_code": "181", "n_corridors": 1, "corridors": "สุขุมวิท", "note": null}, "geometry": {"type": "Point", "coordinates": [100.5794, 13.72361]}}, {"type": "Feature", "properties": {"name": "อารีย์", "signal_code": "092", "n_corridors": 1, "corridors": "สุขุมวิท", "note": null}, "geometry": {"type": "Point", "coordinates": [100.57108, 13.72949]}}, {"type": "Feature", "properties": {"name": "สุขุมวิท 24", "signal_code": "495", "n_corridors": 1, "corridors": "สุขุมวิท", "note": null}, "geometry": {"type": "Point", "coordinates": [100.56976, 13.73043]}}, {"type": "Feature", "properties": {"name": "สวัสดี", "signal_code": "293", "n_corridors": 1, "corridors": "สุขุมวิท", "note": null}, "geometry": {"type": "Point", "coordinates": [100.56601, 13.73304]}}, {"type": "Feature", "properties": {"name": "สายน้ำผึ้ง", "signal_code": "293", "n_corridors": 1, "corridors": "สุขุมวิท", "note": null}, "geometry": {"type": "Point", "coordinates": [100.56525, 13.73359]}}, {"type": "Feature", "properties": {"name": "อโศกมนตรี", "signal_code": "115", "n_corridors": 1, "corridors": "สุขุมวิท", "note": null}, "geometry": {"type": "Point", "coordinates": [100.56131, 13.73641]}}, {"type": "Feature", "properties": {"name": "นานา", "signal_code": "105", "n_corridors": 1, "corridors": "สุขุมวิท", "note": null}, "geometry": {"type": "Point", "coordinates": [100.55298, 13.74215]}}, {"type": "Feature", "properties": {"name": "มเหสักข์", "signal_code": "389", "n_corridors": 1, "corridors": "สุรศักดิ์", "note": null}, "geometry": {"type": "Point", "coordinates": [100.51887, 13.72602]}}, {"type": "Feature", "properties": {"name": "ใต้ด่วนจันทน์", "signal_code": "405", "n_corridors": 1, "corridors": "สุรศักดิ์", "note": null}, "geometry": {"type": "Point", "coordinates": [100.51872, 13.70785]}}, {"type": "Feature", "properties": {"name": "บางชัน", "signal_code": "436", "n_corridors": 1, "corridors": "เสรีไทย", "note": null}, "geometry": {"type": "Point", "coordinates": [100.71223, 13.80528]}}, {"type": "Feature", "properties": {"name": "นิคมอุตสาหกรรมบางชัน", "signal_code": "717", "n_corridors": 1, "corridors": "เสรีไทย", "note": null}, "geometry": {"type": "Point", "coordinates": [100.7051, 13.80133]}}, {"type": "Feature", "properties": {"name": "สวนสยาม", "signal_code": "482", "n_corridors": 1, "corridors": "เสรีไทย", "note": null}, "geometry": {"type": "Point", "coordinates": [100.69127, 13.79537]}}, {"type": "Feature", "properties": {"name": "ต่างระดับเสรีไทย (ตะวันออก)", "signal_code": "465", "n_corridors": 1, "corridors": "เสรีไทย", "note": null}, "geometry": {"type": "Point", "coordinates": [100.68368, 13.79209]}}, {"type": "Feature", "properties": {"name": "ต่างระดับเสรีไทย (ตะวันตก)", "signal_code": "466", "n_corridors": 1, "corridors": "เสรีไทย", "note": null}, "geometry": {"type": "Point", "coordinates": [100.68119, 13.79105]}}, {"type": "Feature", "properties": {"name": "เสรีไทย 38", "signal_code": "830", "n_corridors": 1, "corridors": "เสรีไทย", "note": null}, "geometry": {"type": "Point", "coordinates": [100.67776, 13.78843]}}, {"type": "Feature", "properties": {"name": "หมู่บ้านสหกรณ์", "signal_code": "481", "n_corridors": 1, "corridors": "เสรีไทย", "note": null}, "geometry": {"type": "Point", "coordinates": [100.67558, 13.7858]}}, {"type": "Feature", "properties": {"name": "สำนักงานเขตบึงกุ่ม", "signal_code": "827", "n_corridors": 1, "corridors": "เสรีไทย", "note": null}, "geometry": {"type": "Point", "coordinates": [100.67092, 13.78173]}}, {"type": "Feature", "properties": {"name": "เสรีไทย 23", "signal_code": "826", "n_corridors": 1, "corridors": "เสรีไทย", "note": null}, "geometry": {"type": "Point", "coordinates": [100.66232, 13.77709]}}, {"type": "Feature", "properties": {"name": "สะพานขาว", "signal_code": "037", "n_corridors": 1, "corridors": "หลานหลวง", "note": null}, "geometry": {"type": "Point", "coordinates": [100.51608, 13.75659]}}, {"type": "Feature", "properties": {"name": "หลานหลวง", "signal_code": "057", "n_corridors": 1, "corridors": "หลานหลวง", "note": null}, "geometry": {"type": "Point", "coordinates": [100.50964, 13.75643]}}, {"type": "Feature", "properties": {"name": "วงเวียนเล็ก", "signal_code": null, "n_corridors": 1, "corridors": "อรุณอมรินทร์", "note": null}, "geometry": {"type": "Point", "coordinates": [100.4957, 13.73444]}}, {"type": "Feature", "properties": {"name": "วังเดิม", "signal_code": "423", "n_corridors": 1, "corridors": "อรุณอมรินทร์", "note": null}, "geometry": {"type": "Point", "coordinates": [100.48756, 13.74217]}}, {"type": "Feature", "properties": {"name": "บ้านขมิ้น", "signal_code": "472", "n_corridors": 1, "corridors": "อรุณอมรินทร์", "note": "อรุณอมรินทร์ 44"}, "geometry": {"type": "Point", "coordinates": [100.48358, 13.75237]}}, {"type": "Feature", "properties": {"name": "ศิริราช", "signal_code": "174", "n_corridors": 1, "corridors": "อรุณอมรินทร์", "note": null}, "geometry": {"type": "Point", "coordinates": [100.4835, 13.75602]}}, {"type": "Feature", "properties": {"name": "สามเหลี่ยมดินแดง", "signal_code": "019", "n_corridors": 1, "corridors": "อโศกดินแดง", "note": null}, "geometry": {"type": "Point", "coordinates": [100.54276, 13.76279]}}, {"type": "Feature", "properties": {"name": "สุดเขตกรุงเทพฯ", "signal_code": null, "n_corridors": 1, "corridors": "อินทรพิทักษ์-เพชรเกษม", "note": null}, "geometry": {"type": "Point", "coordinates": [100.33238, 13.7048]}}, {"type": "Feature", "properties": {"name": "เพชรเกษม 81", "signal_code": "273", "n_corridors": 1, "corridors": "อินทรพิทักษ์-เพชรเกษม", "note": "หนองแขม"}, "geometry": {"type": "Point", "coordinates": [100.34326, 13.70548]}}, {"type": "Feature", "properties": {"name": "พุทธมณฑล สาย 3", "signal_code": "427", "n_corridors": 1, "corridors": "อินทรพิทักษ์-เพชรเกษม", "note": "เพชรเกษม-พุทธมณฑล สาย3"}, "geometry": {"type": "Point", "coordinates": [100.36412, 13.70716]}}, {"type": "Feature", "properties": {"name": "เพชรเกษม 69", "signal_code": "272", "n_corridors": 1, "corridors": "อินทรพิทักษ์-เพชรเกษม", "note": "คลองขวาง"}, "geometry": {"type": "Point", "coordinates": [100.37385, 13.70793]}}, {"type": "Feature", "properties": {"name": "หมู่บ้านเศรษฐกิจ", "signal_code": "260", "n_corridors": 1, "corridors": "อินทรพิทักษ์-เพชรเกษม", "note": null}, "geometry": {"type": "Point", "coordinates": [100.3782, 13.70828]}}, {"type": "Feature", "properties": {"name": "พุทธมณฑล สาย 2", "signal_code": "259", "n_corridors": 1, "corridors": "อินทรพิทักษ์-เพชรเกษม", "note": "เพชรเกษม-พุทธมณฑล สาย 2"}, "geometry": {"type": "Point", "coordinates": [100.3959, 13.70972]}}, {"type": "Feature", "properties": {"name": "เพชรเกษม 88", "signal_code": "487", "n_corridors": 1, "corridors": "อินทรพิทักษ์-เพชรเกษม", "note": "วีเหลี่ยม"}, "geometry": {"type": "Point", "coordinates": [100.4036, 13.71035]}}, {"type": "Feature", "properties": {"name": "หน้าเดอะมอลล์บางแค", "signal_code": "486", "n_corridors": 1, "corridors": "อินทรพิทักษ์-เพชรเกษม", "note": null}, "geometry": {"type": "Point", "coordinates": [100.40831, 13.71074]}}, {"type": "Feature", "properties": {"name": "บางแค", "signal_code": "258", "n_corridors": 1, "corridors": "อินทรพิทักษ์-เพชรเกษม", "note": null}, "geometry": {"type": "Point", "coordinates": [100.42084, 13.71175]}}, {"type": "Feature", "properties": {"name": "พุทธมณฑล สาย 1", "signal_code": "288", "n_corridors": 1, "corridors": "อินทรพิทักษ์-เพชรเกษม", "note": "เพชรเกษม-พุทธมณฑล สาย1"}, "geometry": {"type": "Point", "coordinates": [100.42848, 13.7124]}}, {"type": "Feature", "properties": {"name": "ต่างระดับเพชรเกษม", "signal_code": null, "n_corridors": 1, "corridors": "อินทรพิทักษ์-เพชรเกษม", "note": null}, "geometry": {"type": "Point", "coordinates": [100.45808, 13.72078]}}, {"type": "Feature", "properties": {"name": "บางยี่เรือ", "signal_code": "108", "n_corridors": 1, "corridors": "อินทรพิทักษ์-เพชรเกษม", "note": null}, "geometry": {"type": "Point", "coordinates": [100.48714, 13.72729]}}]}